HospType,ED,Trauma,NSG,FAC_NAME,state,city,PRVDR_NUM,street,zipcode,query,lon,lat,type,loctype,address,north,south,east,west
Short term,TRUE,FALSE,FALSE,CRENSHAW COMMUNITY HOSPITAL,AL,LUVERNE,010008,101 HOSPITAL CIRCLE,36049,"CRENSHAW COMMUNITY HOSPITAL near LUVERNE, AL 36049",-86.2647235,31.6936146,establishment,rooftop,"101 hospital dr, luverne, al 36049, usa",31.6949635802915,31.6922656197085,-86.26337451970849,-86.26607248029151
Short term,TRUE,FALSE,FALSE,DEKALB REGIONAL MEDICAL CENTER,AL,FORT PAYNE,010012,200 MED CENTER DRIVE,35968,"DEKALB REGIONAL MEDICAL CENTER near FORT PAYNE, AL 35968",-85.7550138,34.4419753,establishment,rooftop,"200 medical center dr sw, fort payne, al 35968, usa",34.4433242802915,34.4406263197085,-85.7536648197085,-85.75636278029151
Short term,TRUE,FALSE,FALSE,HEALTHSOUTH METRO WEST HOSPITAL,AL,FAIRFIELD,010068,701 RICHARD M SCRUSHY PARKWAY,35064,"HEALTHSOUTH METRO WEST HOSPITAL near FAIRFIELD, AL 35064",-86.907349,33.4764709,establishment,rooftop,"6124 myron massey blvd, fairfield, al 35064, usa",33.47781988029149,33.4751219197085,-86.9060000197085,-86.9086979802915
Short term,TRUE,FALSE,FALSE,LAMAR REGIONAL HOSPITAL,AL,VERNON,010080,507 FIFTH STREET SW P O BOX 308,35592,"LAMAR REGIONAL HOSPITAL near VERNON, AL 35592",-88.1142155,33.8271406,doctor,rooftop,"49494 al-17, sulligent, al 35586, usa",33.8284895802915,33.8257916197085,-88.1128665197085,-88.11556448029151
Short term,TRUE,FALSE,FALSE,GROVE HILL MEMORIAL HOSPITAL,AL,GROVE HILL,010091,295 JACKSON HWY S,36451,"GROVE HILL MEMORIAL HOSPITAL near GROVE HILL, AL 36451",-87.7760974,31.6942828,establishment,rooftop,"295 s jackson st, grove hill, al 36451, usa",31.6956317802915,31.6929338197085,-87.7747484197085,-87.77744638029151
Short term,TRUE,FALSE,FALSE,RANDOLPH MEDICAL CENTER,AL,ROANOKE,010098,59928 HIGHWAY 22,36274,"RANDOLPH MEDICAL CENTER near ROANOKE, AL 36274",-85.40305049999999,33.1614108,doctor,rooftop,"59928 al-22, roanoke, al 36274, usa",33.16275978029149,33.1600618197085,-85.40170151970848,-85.4043994802915
Short term,TRUE,FALSE,FALSE,PICKENS COUNTY MEDICAL CENTER,AL,CARROLLTON,010109,241 ROBERT K WILSON DRIVE,35447,"PICKENS COUNTY MEDICAL CENTER near CARROLLTON, AL 35447",-88.089069,33.274677,establishment,rooftop,"241 robert k wilson dr, carrollton, al 35447, usa",33.2760259802915,33.2733280197085,-88.0877200197085,-88.0904179802915
Short term,TRUE,FALSE,FALSE,GUIN HOSPITAL,AL,GUIN,010111,1201 14TH ST BOX 250,35563,"GUIN HOSPITAL near GUIN, AL 35563",-87.918576,33.9681392,doctor,rooftop,"252 13th ave w, guin, al 35563, usa",33.96948818029149,33.9667902197085,-87.9172270197085,-87.91992498029151
Short term,TRUE,FALSE,FALSE,JACKSON MEDICAL CENTER,AL,JACKSON,010128,220 HOSPITAL DRIVE,36545,"JACKSON MEDICAL CENTER near JACKSON, AL 36545",-87.89505299999999,31.5311947,establishment,rooftop,"220 hospital dr, jackson, al 36545, usa",31.5325436802915,31.5298457197085,-87.8937040197085,-87.8964019802915
Short term,TRUE,FALSE,FALSE,D E JACKSON MEMORIAL HOSPITAL,AL,LESTER,010136,111 IVY POINT ROAD DRAWER A,35647,"D E JACKSON MEMORIAL HOSPITAL near LESTER, AL 35647",-87.1535378,34.9902222,establishment,rooftop,"30338 lester rd, lester, al 35647, usa",34.9915711802915,34.9888732197085,-87.1521888197085,-87.1548867802915
Short term,TRUE,TRUE,FALSE,RUSSELLVILLE HOSPITAL,AL,RUSSELLVILLE,010158,15155 HIGHWAY 43,35653,"RUSSELLVILLE HOSPITAL near RUSSELLVILLE, AL 35653",-87.718347,34.5107725,establishment,rooftop,"15155 us-43, russellville, al 35653, usa",34.5121214802915,34.50942351970851,-87.71699801970848,-87.71969598029149
Critical Access,TRUE,FALSE,FALSE,RANDOLPH MEDICAL CENTER,AL,ROANOKE,011303,59928 HIGHWAY 22   P O BOX 670,36274,"RANDOLPH MEDICAL CENTER near ROANOKE, AL 36274",-85.40305049999999,33.1614108,doctor,rooftop,"59928 al-22, roanoke, al 36274, usa",33.16275978029149,33.1600618197085,-85.40170151970848,-85.4043994802915
Short term,TRUE,FALSE,FALSE,NORTON SOUND REGIONAL HOSPITAL,AK,NOME,020005,"PO BOX 966, 5TH AND BERING",99762,"NORTON SOUND REGIONAL HOSPITAL near NOME, AK 99762",-165.3784042,64.4992304,establishment,rooftop,"1000 greg kruschek avenue, nome, ak 99762, usa",64.50057938029151,64.4978814197085,-165.3770552197085,-165.3797531802915
Short term,TRUE,FALSE,FALSE,FAITH HOSPITAL,AK,GLENALLEN,020016,187 GLENN HWY (P O BOX 5),99588,"FAITH HOSPITAL near GLENALLEN, AK 99588",-145.5404662,62.10907530000001,establishment,rooftop,"187 glenn hwy, glennallen, ak 99588, usa",62.11042428029151,62.1077263197085,-145.5391172197085,-145.5418151802915
Short term,TRUE,TRUE,FALSE,YUKON KUSKOKWIM DELTA REG HOSPITAL,AK,BETHEL,020018,PO BOX 287,99559,"YUKON KUSKOKWIM DELTA REG HOSPITAL near BETHEL, AK 99559",-161.7873258,60.78792060000001,establishment,rooftop,"700 chief eddie hoffman hwy, bethel, ak 99559, usa",60.78926958029151,60.7865716197085,-161.7859768197085,-161.7886747802915
Short term,TRUE,FALSE,FALSE,BRISTOL BAY AREA HEALTH CORP,AK,DILLINGHAM,020021,PO BOX 130,99576,"BRISTOL BAY AREA HEALTH CORP near DILLINGHAM, AK 99576",-158.5368215,59.0006067,establishment,rooftop,"6000 kanakanak rd, dillingham, ak 99576, usa",59.0019556802915,58.99925771970849,-158.5354725197085,-158.5381704802915
Short term,TRUE,FALSE,FALSE,VALDEZ COMMUNITY HOSPITAL,AK,VALDEZ,020025,911  MEALS AVENUE (P O BOX 550),99686,"VALDEZ COMMUNITY HOSPITAL near VALDEZ, AK 99686",-146.3458866,61.13647810000001,establishment,rooftop,"911 meals ave, valdez, ak 99686, usa",61.13782708029151,61.13512911970849,-146.3445376197085,-146.3472355802915
Critical Access,TRUE,TRUE,FALSE,PROVIDENCE VALDEZ MEDICAL CENTER,AK,VALDEZ,021301,PO BOX 550,99686,"PROVIDENCE VALDEZ MEDICAL CENTER near VALDEZ, AK 99686",-146.3458866,61.13647810000001,establishment,rooftop,"911 meals ave, valdez, ak 99686, usa",61.13782708029151,61.13512911970849,-146.3445376197085,-146.3472355802915
Critical Access,TRUE,FALSE,FALSE,PETERSBURG MEDICAL CENTER,AK,PETERSBURG,021304,PO BOX 589,99833,"PETERSBURG MEDICAL CENTER near PETERSBURG, AK 99833",-132.9554619,56.8128691,establishment,rooftop,"103 fram st, petersburg, ak 99833, usa",56.814218080291496,56.8115201197085,-132.9541129197085,-132.9568108802915
Critical Access,TRUE,FALSE,FALSE,CORDOVA COMMUNITY MEDICAL CENTER,AK,CORDOVA,021307,PO BOX 160 - 602 CHASE AVENUE,99574,"CORDOVA COMMUNITY MEDICAL CENTER near CORDOVA, AK 99574",-145.750531,60.54133539999999,establishment,rooftop,"602 chase ave, cordova, ak 99574, usa",60.5426843802915,60.53998641970848,-145.7491820197085,-145.7518799802915
Critical Access,TRUE,FALSE,FALSE,NORTON SOUND REGIONAL HOSPITAL,AK,NOME,021308,1000 GREG KRUSCHEK AVENUE (P O BOX 966),99762,"NORTON SOUND REGIONAL HOSPITAL near NOME, AK 99762",-165.3784042,64.4992304,establishment,rooftop,"1000 greg kruschek avenue, nome, ak 99762, usa",64.50057938029151,64.4978814197085,-165.3770552197085,-165.3797531802915
Critical Access,TRUE,FALSE,FALSE,MANIILAQ HEALTH CENTER,AK,KOTZEBUE,021310,PO BOX 43,99752,"MANIILAQ HEALTH CENTER near KOTZEBUE, AK 99752",-162.5868698,66.8961387,establishment,rooftop,"436 5th ave, kotzebue, ak 99752, usa",66.8974876802915,66.89478971970848,-162.5855208197085,-162.5882187802915
Short term,TRUE,FALSE,FALSE,SAGE MEMORIAL HOSPITAL,AZ,GANADO,030004,PO BOX 457,86505,"SAGE MEMORIAL HOSPITAL near GANADO, AZ 86505",-109.5435396,35.710794,establishment,geometric_center,"us-191 & az-264, ganado, az 86505, usa",35.7121429802915,35.7094450197085,-109.5421906197085,-109.5448885802915
Short term,TRUE,FALSE,FALSE,FORT DEFIANCE INDIAN HOSPITAL,AZ,FORT DEFIANCE,030071,PO BOX 649,86504,"FORT DEFIANCE INDIAN HOSPITAL near FORT DEFIANCE, AZ 86504",-109.0483992,35.759317,establishment,rooftop,"corner of routes n12 &, n7, fort defiance, az 86504, usa",35.7606659802915,35.7579680197085,-109.0470502197085,-109.0497481802915
Short term,TRUE,FALSE,FALSE,HU HU KAM MEMORIAL HOSPITAL,AZ,SACATON,030076,PO BOX 38,85247,"HU HU KAM MEMORIAL HOSPITAL near SACATON, AZ 85247",-111.7591372,33.0730133,establishment,rooftop,"483 w seed farm rd, sacaton, az 85147, usa",33.0743622802915,33.0716643197085,-111.7577882197085,-111.7604861802915
Short term,TRUE,TRUE,FALSE,ST LUKES BEHAVIORIAL HEALTH CENTER,AZ,PHOENIX,030082,PO BOX 13609,85006,"ST LUKES BEHAVIORIAL HEALTH CENTER near PHOENIX, AZ 85006",-112.0423562,33.4544851,establishment,rooftop,"1800 e van buren st, phoenix, az 85006, usa",33.4558340802915,33.4531361197085,-112.0410072197085,-112.0437051802915
Short term,TRUE,FALSE,FALSE,CHINLE COMPREHENSIVE HEALTH CARE FACILITY,AZ,CHINLE,030084,"US HWY 191, HOSPITAL ROAD",86503,"CHINLE COMPREHENSIVE HEALTH CARE FACILITY near CHINLE, AZ 86503",-109.6076963,36.1575812,establishment,geometric_center,"u.s. 191 & hospital drive, chinle, az 86503, usa",36.15893018029149,36.15623221970849,-109.6063473197085,-109.6090452802915
Critical Access,TRUE,TRUE,FALSE,WHITERIVER PHS INDIAN HOSPITAL,AZ,WHITERIVER,031306,PO BOX 860,85941,"WHITERIVER PHS INDIAN HOSPITAL near WHITERIVER, AZ 85941",-109.9577386,33.8758829,establishment,rooftop,"200 w hospital dr, whiteriver, az 85941, usa",33.8772318802915,33.8745339197085,-109.9563896197085,-109.9590875802915
Critical Access,TRUE,FALSE,FALSE,PARKER INDIAN HEALTH CENTER,AZ,PARKER,031307,12033 AGENCY ROAD,85344,"PARKER INDIAN HEALTH CENTER near PARKER, AZ 85344",-114.3019643,34.14732,establishment,rooftop,"12033 w agency ave, parker, az 85344, usa",34.1486689802915,34.1459710197085,-114.3006153197085,-114.3033132802915
Critical Access,TRUE,FALSE,FALSE,FT YUMA PHS INDIAN HOSPITAL,AZ,YUMA,031310,PO BOX 1368,85366,"FT YUMA PHS INDIAN HOSPITAL near YUMA, AZ 85366",-114.6165392,32.7366528,establishment,rooftop,"401 east picacho rd, winterhaven, ca 92283, usa",32.7380017802915,32.7353038197085,-114.6151902197085,-114.6178881802915
Short term,TRUE,TRUE,TRUE,WASHINGTON REGIONAL MEDICAL CENTER,AR,FAYETTEVILLE,040004,3215 N NORTH HILLS BOULEVARD,72703,"WASHINGTON REGIONAL MEDICAL CENTER near FAYETTEVILLE, AR 72703",-94.1593777,36.1096451,establishment,rooftop,"3215 n northhills blvd, fayetteville, ar 72703, usa",36.1109940802915,36.1082961197085,-94.1580287197085,-94.1607266802915
Short term,TRUE,TRUE,FALSE,CRITTENDEN MEMORIAL HOSPITAL,AR,WEST MEMPHIS,040042,200 TYLER,72301,"CRITTENDEN MEMORIAL HOSPITAL near WEST MEMPHIS, AR 72301",-90.18768399999999,35.1441909,doctor,rooftop,"200 w tyler ave, west memphis, ar 72301, usa",35.1455398802915,35.1428419197085,-90.18633501970848,-90.1890329802915
Short term,TRUE,FALSE,FALSE,DELTA MEMORIAL HOSPITAL ASSOCIATION,AR,DUMAS,040053,300 EAST PICKENS,71639,"DELTA MEMORIAL HOSPITAL ASSOCIATION near DUMAS, AR 71639",-91.4804101,33.8732898,establishment,rooftop,"811 us-65, dumas, ar 71639, usa",33.87463878029151,33.87194081970851,-91.47906111970849,-91.48175908029151
Short term,TRUE,FALSE,FALSE,ST MICHAEL HOSPITAL OF TEXARKANA,AR,TEXARKANA,040063,SIXTH AND HAZEL STREETS PO BOX 1140,75502,"ST MICHAEL HOSPITAL OF TEXARKANA near TEXARKANA, AR 75502",-94.07452930000001,33.4635719,doctor,rooftop,"2600 st michael dr, texarkana, tx 75503, usa",33.46492088029149,33.46222291970849,-94.07318031970851,-94.07587828029152
Short term,TRUE,FALSE,FALSE,BUFFALO ISLAND COMMUNITY HOSPITAL,AR,MANILA,040123,912 DAVIS,72442,"BUFFALO ISLAND COMMUNITY HOSPITAL near MANILA, AR 72442",-90.1670393,35.8800733,locality,approximate,"manila, ar 72442, usa",35.9017951,35.869087,-90.1413599,-90.18499779999999
Short term,TRUE,FALSE,FALSE,ARKANSAS SURGICAL HOSPITAL,AR,NO LITTLE ROCK,040147,5201 NORTH SHORE DRIVE,72118,"ARKANSAS SURGICAL HOSPITAL near NO LITTLE ROCK, AR 72118",-92.3485444,34.8002051,establishment,rooftop,"5201 northshore dr, north little rock, ar 72118, usa",34.8015540802915,34.7988561197085,-92.34719541970848,-92.34989338029149
Short term,TRUE,FALSE,FALSE,WHITE MEMORIAL MEDICAL CENTER,CA,LOS ANGELES,050103,1720 E CESAR AVENUE,90033,"WHITE MEMORIAL MEDICAL CENTER near LOS ANGELES, CA 90033",-118.218081,34.0487823,establishment,rooftop,"specialty care tower, ground floor, 1720 east cesar e chavez avenue, los angeles, ca 90033, usa",34.0501312802915,34.0474333197085,-118.2167320197085,-118.2194299802915
Short term,TRUE,TRUE,TRUE,UNIVERSITY OF CALIFORNIA IRVINE MED CENTER,CA,ORANGE,050348,101 CITY DRIVE SOUTH,92868,"UNIVERSITY OF CALIFORNIA IRVINE MED CENTER near ORANGE, CA 92868",-117.8887239,33.7871702,establishment,rooftop,"101 the city dr s, orange, ca 92868, usa",33.78851918029149,33.7858212197085,-117.8873749197085,-117.8900728802915
Short term,TRUE,FALSE,FALSE,COAST PLAZA HOSPITAL,CA,NORWALK,050771,13100 STUDERBAKER ROAD,90650,"COAST PLAZA HOSPITAL near NORWALK, CA 90650",-118.0986084,33.9122427,establishment,rooftop,"13100 studebaker rd, norwalk, ca 90650, usa",33.9135916802915,33.9108937197085,-118.0972594197085,-118.0999573802915
Short term,TRUE,FALSE,FALSE,CONEJOS COUNTY HOSPITAL,CO,LA JARA,060060,19021 STATE HWY 285 SOUTH   PO BOX 639,81140,"CONEJOS COUNTY HOSPITAL near LA JARA, CO 81140",-105.9656104,37.26283189999999,establishment,rooftop,"19021 us hwy 285, la jara, co 81140, usa",37.2641808802915,37.2614829197085,-105.9642614197085,-105.9669593802915
Short term,TRUE,FALSE,FALSE,LINCOLN COMMUNITY HOSPITAL,CO,HUGO,060062,PO BOX 248,80821,"LINCOLN COMMUNITY HOSPITAL near HUGO, CO 80821",-103.473391,39.138309,establishment,rooftop,"111 6th st, hugo, co 80821, usa",39.1396579802915,39.1369600197085,-103.4720420197085,-103.4747399802915
Critical Access,TRUE,TRUE,TRUE,HEART OF THE ROCKIES REGIONAL MEDICAL CENTER,CO,SALIDA,061322,1000 RUSH DRIVE,81201,"HEART OF THE ROCKIES REGIONAL MEDICAL CENTER near SALIDA, CO 81201",-106.0086836,38.5427733,doctor,rooftop,"1000 rush drive, salida, co 81201, usa",38.544122280291496,38.5414243197085,-106.0073346197085,-106.0100325802915
Critical Access,TRUE,TRUE,FALSE,PIONEERS MEDICAL CENTER,CO,MEEKER,061325,100 PIONEERS MEDICAL CENTER DRIVE,81641,"PIONEERS MEDICAL CENTER near MEEKER, CO 81641",-107.8822968,40.0470026,doctor,rooftop,"100 pioneers medical center drive, meeker, co 81641, usa",40.0483515802915,40.0456536197085,-107.8809478197085,-107.8836457802915
Short term,TRUE,FALSE,TRUE,CORAL GABLES HOSPITAL,FL,CORAL GABLES,100183,3100 DOUGLAS RD,33134,"CORAL GABLES HOSPITAL near CORAL GABLES, FL 33134",-80.2550598,25.7436474,establishment,rooftop,"3100 douglas rd, coral gables, fl 33134, usa",25.7449963802915,25.7422984197085,-80.25371081970849,-80.2564087802915
Short term,TRUE,FALSE,FALSE,CENTURY MEMORIAL HOSPITAL,FL,CENTURY,100193,THIRD  MAYO STREETS,32535,"CENTURY MEMORIAL HOSPITAL near CENTURY, FL 32535",-87.2581055,30.9820383,doctor,rooftop,"8401 n century blvd, century, fl 32535, usa",30.9833872802915,30.9806893197085,-87.25675651970849,-87.2594544802915
Short term,TRUE,FALSE,TRUE,"VILLAGES REGIONAL HOSPITAL, THE",FL,THE VILLAGES,100290,1451 EL CAMINO REAL,32159,"VILLAGES REGIONAL HOSPITAL, THE near THE VILLAGES, FL 32159",-81.9582652,28.950209,establishment,rooftop,"1451 el camino real, the villages, fl 32159, usa",28.9515579802915,28.9488600197085,-81.95691621970849,-81.9596141802915
Long term,TRUE,FALSE,FALSE,SUNLAND COX MEDICAL CENTER,FL,MARIANNA,102008,3700 WMS DRIVE,32446,"SUNLAND COX MEDICAL CENTER near MARIANNA, FL 32446",-85.174317,30.8313184,establishment,rooftop,"3700 williams dr, marianna, fl 32448, usa",30.8326673802915,30.8299694197085,-85.17296801970849,-85.17566598029151
Short term,TRUE,FALSE,FALSE,HUTCHESON MEDICAL CENTER,GA,FORT OGLETHORPE,110004,100 GROSS CRESCENT,30742,"HUTCHESON MEDICAL CENTER near FORT OGLETHORPE, GA 30742",-85.2640009,34.9469261,establishment,rooftop,"100 gross crescent, fort oglethorpe, ga 30742, usa",34.9482750802915,34.9455771197085,-85.26265191970849,-85.26534988029151
Short term,TRUE,FALSE,FALSE,MONROE COUNTY HOSPITAL,GA,FORSYTH,110013,88 CULLODEN RD BOX 1068,31029,"MONROE COUNTY HOSPITAL near FORSYTH, GA 31029",-83.9453995,33.0314778,establishment,rooftop,"88 martin luther king jr dr, forsyth, ga 31029, usa",33.03282678029149,33.03012881970849,-83.9440505197085,-83.9467484802915
Short term,TRUE,FALSE,FALSE,HABERSHAM COUNTY MEDICAL CTR,GA,DEMOREST,110041,541 HISTORIC HIGHWAY 441-NORTH,30535,"HABERSHAM COUNTY MEDICAL CTR near DEMOREST, GA 30535",-83.53708859999999,34.5810438,establishment,rooftop,"541 historic hwy #441-n, demorest, ga 30535, usa",34.58239278029149,34.5796948197085,-83.5357396197085,-83.5384375802915
Short term,TRUE,TRUE,FALSE,COLQUITT REGIONAL MEDICAL CENTER,GA,MOULTRIE,110105,3131 THOMASVILLE HWY BOX 40,31768,"COLQUITT REGIONAL MEDICAL CENTER near MOULTRIE, GA 31768",-83.7803079,31.1257976,establishment,rooftop,"3131 s main st, moultrie, ga 31768, usa",31.1271465802915,31.1244486197085,-83.7789589197085,-83.78165688029151
Short term,TRUE,FALSE,FALSE,EARLY MEMORIAL HOSPITAL,GA,BLAKELY,110108,630 COLUMBIA RD,39823,"EARLY MEMORIAL HOSPITAL near BLAKELY, GA 39823",-84.9456556,31.3737938,establishment,rooftop,"11740 columbia rd, blakely, ga 39823, usa",31.3751427802915,31.3724448197085,-84.94430661970848,-84.94700458029149
Short term,TRUE,FALSE,FALSE,JENKINS COUNTY HOSPITAL,GA,MILLEN,110141,515 E WINTHROP AVE,30442,"JENKINS COUNTY HOSPITAL near MILLEN, GA 30442",-81.9344009,32.8042804,establishment,rooftop,"931 e winthrope ave, millen, ga 30442, usa",32.80562938029149,32.8029314197085,-81.9330519197085,-81.93574988029151
Short term,TRUE,FALSE,FALSE,WHEELER COUNTY HOSPITAL,GA,GLENWOOD,110151,PO BOX 398,30428,"WHEELER COUNTY HOSPITAL near GLENWOOD, GA 30428",-82.6653022,32.181331,establishment,rooftop,"114 e 2nd ave, glenwood, ga 30428, usa",32.1826799802915,32.1799820197085,-82.6639532197085,-82.66665118029151
Short term,TRUE,FALSE,FALSE,CORNERSTONE MEDICAL CENTER,GA,FORT OGLETHORP,110236,100 GROSS CRESCENT CIRCLE,30742,"CORNERSTONE MEDICAL CENTER near FORT OGLETHORP, GA 30742",-85.2636284,34.9467476,doctor,rooftop,"100 gross crescent circle, fort oglethorpe, ga 30742, usa",34.9480965802915,34.9453986197085,-85.26227941970849,-85.26497738029151
Critical Access,TRUE,FALSE,FALSE,CALHOUN MEMORIAL HOSPITAL,GA,ARLINGTON,111309,"55 J E JENNINGS AVE, PO DRAWER R",39813,"CALHOUN MEMORIAL HOSPITAL near ARLINGTON, GA 39813",-84.7215973,31.4358619,establishment,rooftop,"55 r e jennings ave se, arlington, ga 39813, usa",31.4372108802915,31.4345129197085,-84.72024831970849,-84.7229462802915
Critical Access,TRUE,FALSE,FALSE,"MEDICAL CENTER OF PEACH COUNTY, NAVICENT HEALTH",GA,BYRON,111310,1960 HIGHWAY 247 CONNECTOR,31008,"MEDICAL CENTER OF PEACH COUNTY, NAVICENT HEALTH near BYRON, GA 31008",-83.7593356,32.6049154,establishment,rooftop,"1960 ga-247conn, byron, ga 31008, usa",32.60626438029149,32.60356641970849,-83.75798661970849,-83.7606845802915
Critical Access,TRUE,FALSE,FALSE,MURRAY MEDICAL CENTER,GA,CHATSWORTH,111317,707 OLD ELLIJAY ROAD,30705,"MURRAY MEDICAL CENTER near CHATSWORTH, GA 30705",-84.78315429999999,34.779954,doctor,rooftop,"707 old dalton ellijay rd, chatsworth, ga 30705, usa",34.78130298029149,34.77860501970849,-84.78180531970848,-84.78450328029149
Critical Access,TRUE,FALSE,FALSE,LIBERTY REGIONAL MEDICAL CENTER,GA,HINESVILLE,111335,462 E G MILES PARKWAY,31310,"LIBERTY REGIONAL MEDICAL CENTER near HINESVILLE, GA 31310",-81.60097549999999,31.8394772,establishment,rooftop,"462 elma g miles pkwy, hinesville, ga 31313, usa",31.8408261802915,31.8381282197085,-81.59962651970848,-81.6023244802915
Critical Access,TRUE,FALSE,FALSE,MOUNTAIN LAKES MEDICAL CENTER,GA,CLAYTON,111336,162 LEGACY POINT,30525,"MOUNTAIN LAKES MEDICAL CENTER near CLAYTON, GA 30525",-83.393559,34.892413,establishment,geometric_center,"162 legacy point, clayton, ga 30525, usa",34.89376198029149,34.8910640197085,-83.39221001970849,-83.39490798029149
Critical Access,TRUE,FALSE,FALSE,MOLOKAI GENERAL HOSPITAL,HI,KAUNAKAKAI,121303,280 HOME OLU PLACE,96748,"MOLOKAI GENERAL HOSPITAL near KAUNAKAKAI, HI 96748",-157.0175847,21.0939536,establishment,rooftop,"280 home olu pl, kaunakakai, hi 96748, usa",21.0953025802915,21.0926046197085,-157.0162357197085,-157.0189336802915
Short term,TRUE,TRUE,TRUE,ST JOSEPH REGIONAL MEDICAL CENTER,ID,LEWISTON,130003,415 SIXTH STREET,83501,"ST JOSEPH REGIONAL MEDICAL CENTER near LEWISTON, ID 83501",-117.0244103,46.4166818,establishment,rooftop,"415 6th st, lewiston, id 83501, usa",46.4180307802915,46.4153328197085,-117.0230613197085,-117.0257592802915
Short term,TRUE,FALSE,FALSE,ELMORE MEMORIAL HOSPITAL,ID,MOUNTAIN HOME,130027,895 N SIXTH E PO BOX 1270,83647,"ELMORE MEMORIAL HOSPITAL near MOUNTAIN HOME, ID 83647",-115.6931332,43.1387838,establishment,rooftop,"895 n 6th e st, mountain home, id 83647, usa",43.1401327802915,43.1374348197085,-115.6917842197085,-115.6944821802915
Short term,TRUE,FALSE,FALSE,ONEIDA COUNTY HOSPITAL,ID,MALAD,130048,PO BOX 126 150 NORTH 200 WEST,83252,"ONEIDA COUNTY HOSPITAL near MALAD, ID 83252",-112.2502487,42.1893136,establishment,rooftop,"150 200 w, malad city, id 83252, usa",42.19066258029149,42.1879646197085,-112.2488997197085,-112.2515976802915
Short term,TRUE,TRUE,TRUE,KOOTENAI HEALTH,ID,COEUR D'ALENE,130049,2003 KOOTENAI HEALTH WAY,83814,"KOOTENAI HEALTH near COEUR D'ALENE, ID 83814",-116.79477610000001,47.6964532,route,geometric_center,"kootenai health way, coeur d'alene, id 83814, usa",47.697411,47.6943438,-116.7914914,-116.7961366
Short term,TRUE,FALSE,FALSE,HENRY L DAY MEDICAL CENTER,ID,SILVERTON,130051,BOX 87,83867,"HENRY L DAY MEDICAL CENTER near SILVERTON, ID 83867",-115.9547387,47.4928296,locality,approximate,"silverton, id, usa",47.4992428,47.4894308,-115.9498482,-115.9654051
Short term,TRUE,FALSE,FALSE,CASCADE MEDICAL CENTER,ID,CASCADE,130054,BOX 151 OLD STATE HIGHWAY,83611,"CASCADE MEDICAL CENTER near CASCADE, ID 83611",-116.0495208,44.5183709,establishment,rooftop,"402 lake cascade pkwy, cascade, id 83611, usa",44.5197198802915,44.5170219197085,-116.0481718197085,-116.0508697802915
Short term,TRUE,FALSE,FALSE,WOOD RIVER MEDICAL CENTER,ID,SUN VALLEY,130060,PO BOX 86,83353,"WOOD RIVER MEDICAL CENTER near SUN VALLEY, ID 83353",-114.3494597,43.6485714,establishment,rooftop,"100 hospital dr, ketchum, id 83340, usa",43.6499203802915,43.64722241970851,-114.3481107197085,-114.3508086802915
Critical Access,TRUE,TRUE,FALSE,NELL J REDFIELD MEMORIAL HOSPITAL,ID,MALAD,131303,150 NORTH 200 WEST,83252,"NELL J REDFIELD MEMORIAL HOSPITAL near MALAD, ID 83252",-112.250278,42.18932299999999,establishment,rooftop,"150 200 w, malad city, id 83252, usa",42.1906719802915,42.1879740197085,-112.2489290197085,-112.2516269802915
Critical Access,TRUE,FALSE,FALSE,CASCADE MEDICAL CENTER,ID,CASCADE,131308,402 LAKE CASCADE PARKWAY,83611,"CASCADE MEDICAL CENTER near CASCADE, ID 83611",-116.0495208,44.5183709,establishment,rooftop,"402 lake cascade pkwy, cascade, id 83611, usa",44.5197198802915,44.5170219197085,-116.0481718197085,-116.0508697802915
Short term,TRUE,FALSE,FALSE,BEARDSTOWN HOSPITAL,IL,BEARDSTOWN,140009,BOX 350 BOULEVARD RD,62618,"BEARDSTOWN HOSPITAL near BEARDSTOWN, IL 62618",-90.42369839999999,40.0002555,establishment,rooftop,"8460 st lukes dr, beardstown, il 62618, usa",40.0016044802915,39.99890651970851,-90.4223494197085,-90.4250473802915
Short term,TRUE,FALSE,FALSE,GOOD SAMARITAN REGIONAL HLTH CENTER,IL,MOUNT VERNON,140046,1 GOOD SAMARITAN WAY,62864,"GOOD SAMARITAN REGIONAL HLTH CENTER near MOUNT VERNON, IL 62864",-88.9392874,38.2970498,establishment,rooftop,"1 good samaritan way, mt vernon, il 62864, usa",38.29839878029149,38.2957008197085,-88.93793841970849,-88.94063638029151
Short term,TRUE,FALSE,FALSE,IROQUOIS MEMORIAL HOSPITAL,IL,WATSEKA,140167,200 FAIRMAN STREET,60970,"IROQUOIS MEMORIAL HOSPITAL near WATSEKA, IL 60970",-87.7313095,40.7661417,establishment,rooftop,"200 e fairman ave, watseka, il 60970, usa",40.7674906802915,40.7647927197085,-87.7299605197085,-87.7326584802915
Short term,TRUE,FALSE,FALSE,HEARTLAND REGIONAL MEDICAL CENTER,IL,MARION,140184,3333 W DE YOUNG,62959,"HEARTLAND REGIONAL MEDICAL CENTER near MARION, IL 62959",-88.99146999999999,37.742889,establishment,rooftop,"3333 w deyoung st, marion, il 62959, usa",37.74423798029149,37.7415400197085,-88.9901210197085,-88.9928189802915
Short term,TRUE,FALSE,FALSE,U M W OF A UNION HOSPITAL,IL,WEST FRANKFORT,140215,507 W ST LOUIS ST,62896,"U M W OF A UNION HOSPITAL near WEST FRANKFORT, IL 62896",-88.93453970000002,37.9000072,establishment,rooftop,"502 w st louis st #4, west frankfort, il 62896, usa",37.9013561802915,37.8986582197085,-88.93319071970852,-88.93588868029153
Short term,TRUE,TRUE,FALSE,ILLINOIS VETERANS HOME,IL,QUINCY,140273,1707 N TWELTH STREET,62301,"ILLINOIS VETERANS HOME near QUINCY, IL 62301",-91.4018586,39.9540277,establishment,rooftop,"1707 n 12th st, quincy, il 62301, usa",39.9553766802915,39.9526787197085,-91.40050961970849,-91.4032075802915
Short term,TRUE,TRUE,TRUE,GENESIS HEALTH SYSTEM,IL,SILVIS,140275,801 ILLINI DRIVE,61282,"GENESIS HEALTH SYSTEM near SILVIS, IL 61282",-90.4159305,41.4941412,doctor,rooftop,"1504 10th st, silvis, il 61282, usa",41.4954901802915,41.49279221970851,-90.41458151970849,-90.41727948029151
Long term,TRUE,FALSE,FALSE,MARIANJOY REHABILITATION HOSPITAL,IL,WHEATON,142004,26 WEST 171 ROOSEVELT ROAD,60189,"MARIANJOY REHABILITATION HOSPITAL near WHEATON, IL 60189",-88.1378873,41.8535068,establishment,rooftop,"26w171 roosevelt rd, wheaton, il 60187, usa",41.85485578029149,41.85215781970849,-88.13653831970849,-88.1392362802915
Short term,TRUE,FALSE,TRUE,SAINT JOSEPH REGIONAL MEDICAL CENTER,IN,MISHAWAKA,150012,5215 HOLY CROSS PKWY,46545,"SAINT JOSEPH REGIONAL MEDICAL CENTER near MISHAWAKA, IN 46545",-86.1742222,41.7067895,establishment,rooftop,"5215 holy cross pkwy, mishawaka, in 46545, usa",41.7081384802915,41.7054405197085,-86.1728732197085,-86.17557118029151
Short term,TRUE,FALSE,FALSE,NORTHWEST FAMILY HOSPITAL,IN,GARY,150138,501 FAMILY PLAZA,46402,"NORTHWEST FAMILY HOSPITAL near GARY, IN 46402",-87.35861,41.5988236,airport,geometric_center,"northwest family hospital heliport, grant st, gary, in 46402, usa",41.6001725802915,41.5974746197085,-87.35726101970849,-87.35995898029151
Short term,TRUE,FALSE,FALSE,MONROE HOSPITAL,IN,BLOOMINGTON,150164,4011 S MONROE MEDICAL PARK BLVD,47403,"MONROE HOSPITAL near BLOOMINGTON, IN 47403",-86.5719324,39.1207087,establishment,rooftop,"4011 s monroe medical park blvd, bloomington, in 47403, usa",39.1220576802915,39.11935971970851,-86.57058341970848,-86.5732813802915
Short term,TRUE,FALSE,FALSE,MONROE HOSPITAL,IN,BLOOMINGTON,150183,4011 S MONROE MEDICAL PARK BLVD,47403,"MONROE HOSPITAL near BLOOMINGTON, IN 47403",-86.5719324,39.1207087,establishment,rooftop,"4011 s monroe medical park blvd, bloomington, in 47403, usa",39.1220576802915,39.11935971970851,-86.57058341970848,-86.5732813802915
Short term,TRUE,FALSE,FALSE,MADISON COUNTY MEMORIAL HOSPITAL,IA,WINTERSET,160052,300 HUTCHINGS,50273,"MADISON COUNTY MEMORIAL HOSPITAL near WINTERSET, IA 50273",-94.01703030000002,41.3283224,establishment,rooftop,"300 w hutchings st, winterset, ia 50273, usa",41.32967138029149,41.32697341970849,-94.01568131970852,-94.01837928029153
Short term,TRUE,FALSE,FALSE,AKRON CITY HOSPITAL,IA,AKRON,160136,BOX 847,51001,"AKRON CITY HOSPITAL near AKRON, IA 51001",-96.5592241,42.8288588,establishment,rooftop,"215 reed st, akron, ia 51001, usa",42.8302077802915,42.8275098197085,-96.55787511970848,-96.5605730802915
Short term,TRUE,FALSE,FALSE,KOSSUTH REGIONAL HEALTH CENTER,IA,ALGONA,160143,1515 PHILLIPS,50511,"KOSSUTH REGIONAL HEALTH CENTER near ALGONA, IA 50511",-94.2271267,43.0551792,establishment,rooftop,"1515 s phillips st, algona, ia 50511, usa",43.05652818029149,43.0538302197085,-94.22577771970849,-94.22847568029151
Critical Access,TRUE,FALSE,FALSE,MANNING REGIONAL HEALTHCARE CENTER,IA,MANNING,161332,1550 SIXTH STREET,51455,"MANNING REGIONAL HEALTHCARE CENTER near MANNING, IA 51455",-95.0754359,41.9045113,establishment,rooftop,"1550 6th st, manning, ia 51455, usa",41.90586028029149,41.9031623197085,-95.07408691970849,-95.0767848802915
Short term,TRUE,FALSE,FALSE,COMANCHE COUNTY HOSPITAL,KS,COLDWATER,170036,2ND & FRISCO STS,67029,"COMANCHE COUNTY HOSPITAL near COLDWATER, KS 67029",-99.3326395,37.2683901,establishment,rooftop,"202 s frisco ave, coldwater, ks 67029, usa",37.26973908029149,37.26704111970849,-99.33129051970849,-99.3339884802915
Short term,TRUE,FALSE,FALSE,KINGMAN COMMUNITY HOSPITAL,KS,KINGMAN,170052,750 WEST AVENUE D,67068,"KINGMAN COMMUNITY HOSPITAL near KINGMAN, KS 67068",-98.1232742,37.6473465,establishment,rooftop,"750 w d ave, kingman, ks 67068, usa",37.64869548029149,37.64599751970849,-98.12192521970849,-98.1246231802915
Critical Access,TRUE,TRUE,FALSE,COMANCHE COUNTY HOSPITAL,KS,COLDWATER,171312,2ND & FRISCO STREET,67029,"COMANCHE COUNTY HOSPITAL near COLDWATER, KS 67029",-99.3326395,37.2683901,establishment,rooftop,"202 s frisco ave, coldwater, ks 67029, usa",37.26973908029149,37.26704111970849,-99.33129051970849,-99.3339884802915
Critical Access,TRUE,TRUE,FALSE,SABETHA COMMUNITY HOSPITAL,KS,SABETHA,171338,14TH & OREGON,66534,"SABETHA COMMUNITY HOSPITAL near SABETHA, KS 66534",-95.80807800000001,39.8989099,establishment,geometric_center,"oregon st & s 14th st, sabetha, ks 66534, usa",39.9002588802915,39.8975609197085,-95.80672901970851,-95.80942698029152
Critical Access,TRUE,FALSE,FALSE,TREGO COUNTY LEMKE MEMORIAL HOSPITAL,KS,WA KEENEY,171355,320 THIRTEENTH ST,67672,"TREGO COUNTY LEMKE MEMORIAL HOSPITAL near WA KEENEY, KS 67672",-99.8711166,39.0276041,establishment,rooftop,"320 n 13th st, wakeeney, ks 67672, usa",39.02895308029149,39.0262551197085,-99.86976761970848,-99.8724655802915
Critical Access,TRUE,FALSE,FALSE,KINGMAN COMMUNITY HOSPITAL,KS,KINGMAN,171378,750 W AVE D,67068,"KINGMAN COMMUNITY HOSPITAL near KINGMAN, KS 67068",-98.1232742,37.6473465,establishment,rooftop,"750 w d ave, kingman, ks 67068, usa",37.64869548029149,37.64599751970849,-98.12192521970849,-98.1246231802915
Short term,TRUE,FALSE,FALSE,HIGHLANDS REGIONAL MEDICAL CENTER,KY,PRESTONSBURG,180005,5000 KENTUCKY ROUTE 321,41653,"HIGHLANDS REGIONAL MEDICAL CENTER near PRESTONSBURG, KY 41653",-82.7677866,37.7289594,establishment,rooftop,"5000 ky-321, prestonsburg, ky 41653, usa",37.7303083802915,37.7276104197085,-82.76643761970848,-82.76913558029149
Short term,TRUE,FALSE,FALSE,SAINT JOSEPH LONDON,KY,LONDON,180011,1001 SAINT JOSEPH LANE,40741,"SAINT JOSEPH LONDON near LONDON, KY 40741",-84.11970269999999,37.1520282,doctor,rooftop,"160 london mountain view dr, london, ky 40741, usa",37.1533771802915,37.1506792197085,-84.11835371970848,-84.12105168029149
Short term,TRUE,TRUE,FALSE,MEADOWVIEW REGIONAL MEDICAL CENTER,KY,MAYSVILLE,180019,989 MEDICAL PARK DRIVE,41056,"MEADOWVIEW REGIONAL MEDICAL CENTER near MAYSVILLE, KY 41056",-83.808371,38.640455,establishment,rooftop,"989 medical park dr, maysville, ky 41056, usa",38.64180398029149,38.63910601970849,-83.8070220197085,-83.8097199802915
Short term,TRUE,FALSE,FALSE,MCDOWELL APPALACHIAN REGIONAL HEALTHCARE,KY,MC DOWELL,180028,PO BOX 247 RT 122,41647,"MCDOWELL APPALACHIAN REGIONAL HEALTHCARE near MC DOWELL, KY 41647",-82.74716099999999,37.4567516,establishment,rooftop,"9879 ky-122, mcdowell, ky 41647, usa",37.45810058029149,37.45540261970849,-82.74581201970848,-82.74850998029149
Short term,TRUE,TRUE,TRUE,HAZARD ARH REGIONAL MEDICAL CENTER,KY,HAZARD,180029,100 MEDICAL CENTER DRIVE,41701,"HAZARD ARH REGIONAL MEDICAL CENTER near HAZARD, KY 41701",-83.2278453,37.2775706,establishment,rooftop,"100 medical center dr, hazard, ky 41701, usa",37.2789195802915,37.2762216197085,-83.22649631970849,-83.22919428029151
Short term,TRUE,FALSE,FALSE,PIKEVILLE MEDICAL CENTER,KY,PIKEVILLE,180044,911 BYPASS ROAD,41501,"PIKEVILLE MEDICAL CENTER near PIKEVILLE, KY 41501",-82.5229031,37.4723833,establishment,rooftop,"911 s bypass rd, pikeville, ky 41501, usa",37.4737322802915,37.4710343197085,-82.52155411970848,-82.5242520802915
Short term,TRUE,FALSE,FALSE,FLEMING COUNTY HOSPITAL,KY,FLEMINGSBURG,180053,55 FOUNDATION DRIVE,41041,"FLEMING COUNTY HOSPITAL near FLEMINGSBURG, KY 41041",-83.7520783,38.4218509,establishment,rooftop,"55 foundation dr, flemingsburg, ky 41041, usa",38.42319988029149,38.4205019197085,-83.7507293197085,-83.7534272802915
Short term,TRUE,FALSE,FALSE,SAINT JOSEPH MOUNT STERLING,KY,MOUNT STERLING,180064,225 FALCON DRIVE,40353,"SAINT JOSEPH MOUNT STERLING near MOUNT STERLING, KY 40353",-83.9452682,38.0771193,establishment,rooftop,"225 falcon dr, mt sterling, ky 40353, usa",38.0784682802915,38.0757703197085,-83.9439192197085,-83.94661718029151
Short term,TRUE,FALSE,FALSE,LOGAN MEMORIAL HOSPITAL,KY,RUSSELLVILLE,180066,1625 NASHVILLE STREET,42276,"LOGAN MEMORIAL HOSPITAL near RUSSELLVILLE, KY 42276",-86.8812404,36.8157603,establishment,rooftop,"1625 nashville st, russellville, ky 42276, usa",36.8171092802915,36.8144113197085,-86.8798914197085,-86.8825893802915
Short term,TRUE,FALSE,FALSE,LIVINGSTON HOSP AND HEALTHCARE SER INC,KY,SALEM,180121,131 HOSPITAL DR,42078,"LIVINGSTON HOSP AND HEALTHCARE SER INC near SALEM, KY 42078",-88.22835669999999,37.2630948,establishment,rooftop,"131 hospital dr, salem, ky 42078, usa",37.2644437802915,37.2617458197085,-88.22700771970848,-88.2297056802915
Short term,TRUE,FALSE,FALSE,THREE RIVERS MEDICAL CENTER,KY,LOUISA,180128,2485 HIGHWAY 644,41230,"THREE RIVERS MEDICAL CENTER near LOUISA, KY 41230",-82.60486399999999,38.0923103,establishment,rooftop,"2485 ky-644, louisa, ky 41230, usa",38.0936592802915,38.09096131970851,-82.6035150197085,-82.6062129802915
Critical Access,TRUE,FALSE,FALSE,EPHRAIM MCDOWELL FORT LOGAN HOSPITAL,KY,STANFORD,181315,110 METKER TRAIL,40484,"EPHRAIM MCDOWELL FORT LOGAN HOSPITAL near STANFORD, KY 40484",-84.6531148,37.5426531,establishment,rooftop,"110 metker trail, stanford, ky 40484, usa",37.5440020802915,37.5413041197085,-84.65176581970849,-84.6544637802915
Critical Access,TRUE,TRUE,FALSE,"LIVINGSTON HOSPITAL AND HEALTHCARE SERVICES, INC",KY,SALEM,181320,131 HOSPITAL DRIVE,42078,"LIVINGSTON HOSPITAL AND HEALTHCARE SERVICES, INC near SALEM, KY 42078",-88.22835669999999,37.2630948,establishment,rooftop,"131 hospital dr, salem, ky 42078, usa",37.2644437802915,37.2617458197085,-88.22700771970848,-88.2297056802915
Critical Access,TRUE,FALSE,FALSE,CALDWELL MEDICAL CENTER,KY,PRINCETON,181322,100 MEDICAL CENTER DRIVE,42445,"CALDWELL MEDICAL CENTER near PRINCETON, KY 42445",-87.90957209999999,37.113691,doctor,rooftop,"100 medical center dr, princeton, ky 42445, usa",37.11503998029149,37.1123420197085,-87.90822311970848,-87.91092108029149
Critical Access,TRUE,FALSE,FALSE,MCDOWELL ARH HOSPITAL,KY,MC DOWELL,181331,9879 KENTUCKY ROUTE 122,41647,"MCDOWELL ARH HOSPITAL near MC DOWELL, KY 41647",-82.74716099999999,37.4567516,establishment,rooftop,"9879 ky-122, mcdowell, ky 41647, usa",37.45810058029149,37.45540261970849,-82.74581201970848,-82.74850998029149
Short term,TRUE,FALSE,FALSE,CHRISTUS COUSHATTA HEALTH CARE,LA,COUSHATTA,190134,309 MARVELLE STREET,71019,"CHRISTUS COUSHATTA HEALTH CARE near COUSHATTA, LA 71019",-93.34382629999999,32.02062,establishment,rooftop,"1635 marvel st, coushatta, la 71019, usa",32.0219689802915,32.0192710197085,-93.34247731970848,-93.3451752802915
Short term,TRUE,FALSE,FALSE,RIVER NORTH TREATMENT CENTER,LA,PINEVILLE,190179,5505 HWY 71 NORTH,71477,"RIVER NORTH TREATMENT CENTER near PINEVILLE, LA 71477",-92.43682849999999,31.3890876,postal_code,approximate,"tioga, la 71477, usa",31.3986121,31.3795621,-92.4208211,-92.4528359
Long term,TRUE,FALSE,FALSE,ST LANDRY EXTENDED CARE HOSPITAL,LA,OPELOUSAS,192034,"539 E. PRUDHOMME STREET, 6TH FLOOR",70570,"ST LANDRY EXTENDED CARE HOSPITAL near OPELOUSAS, LA 70570",-92.0752527,30.5447326,establishment,rooftop,"539 prudhomme st 6th floor, opelousas, la 70570, usa",30.5460815802915,30.5433836197085,-92.0739037197085,-92.0766016802915
Short term,TRUE,FALSE,FALSE,AROOSTOOK MEDICAL CENTER,ME,PRESQUE ISLE,200018,PO BOX 151,4769,"AROOSTOOK MEDICAL CENTER near PRESQUE ISLE, ME 4769",-67.99858669999999,46.6750874,doctor,rooftop,"140 academy st, presque isle, me 04769, usa",46.67643638029149,46.6737384197085,-67.99723771970848,-67.99993568029149
Short term,TRUE,TRUE,TRUE,EASTERN MAINE MEDICAL CENTER,ME,BANGOR,200033,PO BOX 404,4401,"EASTERN MAINE MEDICAL CENTER near BANGOR, ME 4401",-68.75173710000001,44.8080922,establishment,rooftop,"489 state st, bangor, me 04401, usa",44.80944118029151,44.80674321970851,-68.75038811970852,-68.75308608029152
Short term,TRUE,FALSE,FALSE,MAYO REGIONAL HOSPITAL,ME,DOVER FOXCROFT,200066,897 WEST MAIN ST,4426,"MAYO REGIONAL HOSPITAL near DOVER FOXCROFT, ME 4426",-69.2378932,45.187684,doctor,rooftop,"897 w main st, dover-foxcroft, me 04426, usa",45.18903298029149,45.1863350197085,-69.23654421970849,-69.23924218029151
Critical Access,TRUE,FALSE,FALSE,MAYO REGIONAL HOSPITAL,ME,DOVER FOXCROFT,201309,897 WEST MAIN STREET,4426,"MAYO REGIONAL HOSPITAL near DOVER FOXCROFT, ME 4426",-69.2378932,45.187684,doctor,rooftop,"897 w main st, dover-foxcroft, me 04426, usa",45.18903298029149,45.1863350197085,-69.23654421970849,-69.23924218029151
Critical Access,TRUE,FALSE,FALSE,WALDO COUNTY GENERAL HOSPITAL,ME,BELFAST,201312,PO BOX 287,4915,"WALDO COUNTY GENERAL HOSPITAL near BELFAST, ME 4915",-68.9939594,44.4128385,establishment,rooftop,"118 northport ave, belfast, me 04915, usa",44.4141874802915,44.4114895197085,-68.99261041970848,-68.9953083802915
Short term,TRUE,FALSE,FALSE,FALMOUTH HOSPITAL,MA,FALMOUTH,220135,67 & 100 TER HEUN DRIVE,2540,"FALMOUTH HOSPITAL near FALMOUTH, MA 2540",-70.6223394,41.564142,establishment,rooftop,"100 ter heun dr, falmouth, ma 02540, usa",41.56549098029149,41.56279301970849,-70.62099041970849,-70.62368838029151
Short term,TRUE,TRUE,TRUE,"LAHEY HOSPITAL & MEDICAL CENTER, BURLINGTON",MA,BURLINGTON,220171,41 & 45 MALL ROAD,1803,"LAHEY HOSPITAL & MEDICAL CENTER, BURLINGTON near BURLINGTON, MA 1803",-71.2042155,42.4842945,establishment,rooftop,"41 burlington mall road, burlington, ma 01805, usa",42.4856434802915,42.4829455197085,-71.2028665197085,-71.2055644802915
Short term,TRUE,FALSE,FALSE,RUSSELL MEMORIAL HOSPITAL,MI,ONAWAY,230163,201 N PINE STREET,49765,"RUSSELL MEMORIAL HOSPITAL near ONAWAY, MI 49765",-84.24176779999999,45.3543472,establishment,rooftop,"21258 m 68 hwy, onaway, mi 49765, usa",45.3556961802915,45.3529982197085,-84.24041881970848,-84.24311678029149
Short term,TRUE,FALSE,FALSE,TRI COUNTY COMMUNITY HOSPITAL,MI,EDMORE,230179,1131 E HOWARD CITY,48829,"TRI COUNTY COMMUNITY HOSPITAL near EDMORE, MI 48829",-85.0386317,43.4080869,locality,approximate,"edmore, mi 48829, usa",43.415341,43.397121,-85.0243029,-85.05406
Short term,TRUE,FALSE,FALSE,COMMUNITY HOSPITAL FOUNDATION,MI,ALMONT,230225,80650 N VAN DYKE,48003,"COMMUNITY HOSPITAL FOUNDATION near ALMONT, MI 48003",-83.0427979,42.9207013,establishment,rooftop,"231 e st clair st, almont, mi 48003, usa",42.9220502802915,42.9193523197085,-83.04144891970849,-83.0441468802915
Short term,TRUE,TRUE,FALSE,SELECT SPECIALTY HOSPITAL-PONTIAC,MI,PONTIAC,230290,"4405 WOODWARD AVENUE, 8TH FLOOR",48341,"SELECT SPECIALTY HOSPITAL-PONTIAC near PONTIAC, MI 48341",-83.2760239,42.6142543,establishment,rooftop,"44405 woodward ave 8th floor, pontiac, mi 48341, usa",42.6156032802915,42.6129053197085,-83.2746749197085,-83.27737288029151
Critical Access,TRUE,FALSE,FALSE,MUNSON HEALTHCARE CHARLEVOIX HOSPITAL,MI,CHARLEVOIX,231322,14700 LAKESHORE DRIVE,49720,"MUNSON HEALTHCARE CHARLEVOIX HOSPITAL near CHARLEVOIX, MI 49720",-85.27485089999999,45.3144978,doctor,rooftop,"14700 lake shore dr, charlevoix, mi 49720, usa",45.31584678029149,45.31314881970849,-85.27350191970848,-85.27619988029149
Short term,TRUE,TRUE,FALSE,NORTH MEMORIAL MEDICAL CENTER,MN,ROBBINSDALE,240001,3300 OAKDALE NORTH,55422,"NORTH MEMORIAL MEDICAL CENTER near ROBBINSDALE, MN 55422",-93.32214499999999,45.013878,establishment,rooftop,"3300 oakdale ave n, robbinsdale, mn 55422, usa",45.01522698029149,45.0125290197085,-93.32079601970848,-93.3234939802915
Short term,TRUE,FALSE,FALSE,ST ANSGAR HOSPITAL,MN,MOORHEAD,240026,715 N 11TH ST,56560,"ST ANSGAR HOSPITAL near MOORHEAD, MN 56560",-96.71756250000001,46.8500552,establishment,rooftop,"4000 28th ave s, moorhead, mn 56560, usa",46.8514041802915,46.8487062197085,-96.71621351970852,-96.71891148029152
Short term,TRUE,FALSE,FALSE,ST MICHAEL'S HOSPITAL,MN,SAUK CENTRE,240031,425 NORTH ELM STREET,56378,"ST MICHAEL'S HOSPITAL near SAUK CENTRE, MN 56378",-94.9559725,45.7458319,establishment,rooftop,"425 elm st n, sauk centre, mn 56378, usa",45.7471808802915,45.7444829197085,-94.95462351970849,-94.95732148029151
Short term,TRUE,FALSE,FALSE,LAKEVIEW MEMORIAL HOSPITAL,MN,STILLWATER,240066,927 WEST CHURCHILL STREET,55082,"LAKEVIEW MEMORIAL HOSPITAL near STILLWATER, MN 55082",-92.80884429999999,45.056004,establishment,geometric_center,"stillwater, mn 55082, usa",45.0573529802915,45.05465501970851,-92.8074953197085,-92.8101932802915
Short term,TRUE,FALSE,FALSE,JACKSON MUNICIPAL HOSPITAL,MN,JACKSON,240102,1430 NORTH HIGHWAY,56143,"JACKSON MUNICIPAL HOSPITAL near JACKSON, MN 56143",-95.0043211,43.6243188,establishment,rooftop,"1430 n hwy, jackson, mn 56143, usa",43.6256677802915,43.6229698197085,-95.0029721197085,-95.00567008029151
Short term,TRUE,FALSE,FALSE,COOK COUNTY NORTH SHORE HOSPITAL,MN,GRAND MARAIS,240119,PO BOX 10,55604,"COOK COUNTY NORTH SHORE HOSPITAL near GRAND MARAIS, MN 55604",-90.3414526,47.7563918,establishment,rooftop,"515 5th ave w, grand marais, mn 55604, usa",47.75774078029151,47.75504281970851,-90.34010361970849,-90.3428015802915
Short term,TRUE,TRUE,FALSE,LAKEWOOD HEALTH SYSTEM,MN,STAPLES,240144,401 NORTH PRAIRIE AVENUE,56479,"LAKEWOOD HEALTH SYSTEM near STAPLES, MN 56479",-94.75134419999999,46.35139789999999,establishment,rooftop,"49725 county 83, staples, mn 56479, usa",46.35274688029149,46.35004891970849,-94.74999521970848,-94.75269318029149
Short term,TRUE,TRUE,FALSE,MAYO CLINIC HEALTH SYSTEM - FAIRMONT,MN,FAIRMONT,240166,"800 MEDICAL CENTER DRIVE, PO BOX 800",56031,"MAYO CLINIC HEALTH SYSTEM - FAIRMONT near FAIRMONT, MN 56031",-94.4501817,43.6390102,doctor,geometric_center,"800 medical, center creek drive, fairmont, mn 56031, usa",43.6403591802915,43.63766121970851,-94.44883271970849,-94.45153068029151
Short term,TRUE,TRUE,FALSE,HUTCHINSON HEALTH,MN,HUTCHINSON,240187,1095 HIGHWAY 15 SOUTH,55350,"HUTCHINSON HEALTH near HUTCHINSON, MN 55350",-94.37359599999999,44.877609,doctor,rooftop,"1029 mn-15, hutchinson, mn 55350, usa",44.8789579802915,44.8762600197085,-94.37224701970848,-94.3749449802915
Short term,TRUE,FALSE,FALSE,PHS INDIAN HOSPITAL,MN,CASS LAKE,240205,PO BOX 60 (3RD AVE W & 7TH STREET),56633,"PHS INDIAN HOSPITAL near CASS LAKE, MN 56633",-94.6087749,47.3845412,establishment,rooftop,"425 7th st nw, cass lake, mn 56633, usa",47.3858901802915,47.3831922197085,-94.60742591970849,-94.61012388029151
Short term,TRUE,FALSE,FALSE,BERTHA MEMORIAL COMMUNITY HOSPITAL,MN,BERTHA,240208,BOX 97,56437,"BERTHA MEMORIAL COMMUNITY HOSPITAL near BERTHA, MN 56437",-95.0653351,46.2677626,establishment,rooftop,"214 1st st nw, bertha, mn 56437, usa",46.26911158029149,46.26641361970849,-95.0639861197085,-95.06668408029151
Short term,TRUE,FALSE,FALSE,SANDSTONE AREA HOSTAL PINE CITY,MN,PINE CITY,240209,129 EAST SIXTH AVENUE,55063,"SANDSTONE AREA HOSTAL PINE CITY near PINE CITY, MN 55063",-92.9704668,45.8264572,establishment,rooftop,"315 main st s #170, pine city, mn 55063, usa",45.8278061802915,45.8251082197085,-92.96911781970849,-92.97181578029151
Critical Access,TRUE,TRUE,FALSE,SANFORD JACKSON MEDICAL CENTER,MN,JACKSON,241315,1430 NORTH HIGHWAY,56143,"SANFORD JACKSON MEDICAL CENTER near JACKSON, MN 56143",-95.0043211,43.6243188,establishment,rooftop,"1430 n hwy, jackson, mn 56143, usa",43.6256677802915,43.6229698197085,-95.0029721197085,-95.00567008029151
Critical Access,TRUE,TRUE,FALSE,CENTRACARE HEALTH SYSTEM - SAUK CENTRE,MN,SAUK CENTRE,241368,425 NORTH ELM STREET,56378,"CENTRACARE HEALTH SYSTEM - SAUK CENTRE near SAUK CENTRE, MN 56378",-94.95545,45.745829,establishment,rooftop,"425 elm st n, sauk centre, mn 56378, usa",45.7471779802915,45.7444800197085,-94.95410101970849,-94.9567989802915
Critical Access,TRUE,TRUE,FALSE,PRAIRIE RIDGE HOSPITAL AND HEALTH SERVICES,MN,ELBOW LAKE,241379,1411 STATE HIGHWAY 793,56531,"PRAIRIE RIDGE HOSPITAL AND HEALTH SERVICES near ELBOW LAKE, MN 56531",-95.9583912,45.9904346,premise,geometric_center,"prairie ridge hospital and health services, elbow lake, mn 56531, usa",45.9919510302915,45.9892530697085,-95.95690121970848,-95.9595991802915
Short term,TRUE,FALSE,FALSE,PERRY COUNTY GENERAL HOSPITAL,MS,RICHTON,250005,206 ABY STREET,39476,"PERRY COUNTY GENERAL HOSPITAL near RICHTON, MS 39476",-88.9375608,31.3460146,doctor,rooftop,"206 bay ave, richton, ms 39476, usa",31.3473635802915,31.3446656197085,-88.9362118197085,-88.93890978029151
Short term,TRUE,FALSE,FALSE,COMMUNITY HOSPITAL OF CALHOUN COUNTY,MS,PITTSBORO,250016,PO BOX 128,38951,"COMMUNITY HOSPITAL OF CALHOUN COUNTY near PITTSBORO, MS 38951",-89.33757419999999,33.9403898,locality,approximate,"pittsboro, ms 38951, usa",33.947247,33.932857,-89.3284939,-89.3461629
Short term,TRUE,FALSE,FALSE,METHODIST HOSPITAL OF STONE COUNTY,MS,WIGGINS,250046,RT 1 BOX 48,39577,"METHODIST HOSPITAL OF STONE COUNTY near WIGGINS, MS 39577",-89.1162246,30.8456938,doctor,rooftop,"1434 e central ave e, wiggins, ms 39577, usa",30.8470427802915,30.8443448197085,-89.11487561970849,-89.1175735802915
Short term,TRUE,TRUE,FALSE,MONTFORT JONES MEMORIAL HOSPITAL,MS,KOSCIUSKO,250059,220 HWY 12 WEST,39090,"MONTFORT JONES MEMORIAL HOSPITAL near KOSCIUSKO, MS 39090",-89.59837580000001,33.0656755,establishment,rooftop,"220 ms-12, kosciusko, ms 39090, usa",33.06702448029149,33.0643265197085,-89.59702681970852,-89.59972478029152
Short term,TRUE,FALSE,FALSE,RUSH HOSPITAL NEWTON,MS,NEWTON,250073,PO BOX 299,39345,"RUSH HOSPITAL NEWTON near NEWTON, MS 39345",-89.1477377,32.3331715,establishment,rooftop,"252 northside dr, newton, ms 39345, usa",32.3345204802915,32.3318225197085,-89.14638871970848,-89.1490866802915
Short term,TRUE,TRUE,FALSE,DELTA REGIONAL MEDICAL CENTER,MS,GREENVILLE,250082,1400 E UNION ST,38704,"DELTA REGIONAL MEDICAL CENTER near GREENVILLE, MS 38704",-91.0310708,33.4098286,doctor,rooftop,"1727 e union st, greenville, ms 38703, usa",33.41117758029149,33.40847961970849,-91.0297218197085,-91.0324197802915
Short term,TRUE,FALSE,FALSE,MERIT HEALTH NATCHEZ,MS,NATCHEZ,250084,52 SERGEANT PRENTISS DRIVE,39120,"MERIT HEALTH NATCHEZ near NATCHEZ, MS 39120",-91.3900378,31.5282102,establishment,rooftop,"54 sergeant prentiss dr, natchez, ms 39120, usa",31.5295591802915,31.5268612197085,-91.3886888197085,-91.39138678029151
Short term,TRUE,FALSE,TRUE,HUMPHREYS COUNTY MEMORIAL HOSPITAL,MS,BELZONI,250098,500 CCC ROAD,39038,"HUMPHREYS COUNTY MEMORIAL HOSPITAL near BELZONI, MS 39038",-90.470181,33.182603,establishment,rooftop,"500 c c rd, belzoni, ms 39038, usa",33.1839519802915,33.1812540197085,-90.4688320197085,-90.4715299802915
Short term,TRUE,FALSE,FALSE,GREENE COUNTY HOSPITAL,MS,LEAKESVILLE,250133,PO BOX 137,39451,"GREENE COUNTY HOSPITAL near LEAKESVILLE, MS 39451",-88.5627288,31.1536906,establishment,rooftop,"1017 jackson ave, leakesville, ms 39451, usa",31.1550395802915,31.1523416197085,-88.5613798197085,-88.56407778029151
Short term,TRUE,FALSE,FALSE,GREEN COUNTY HOSPITAL,MS,LEAKESVILLE,250142,PO BOX 39,39451,"GREEN COUNTY HOSPITAL near LEAKESVILLE, MS 39451",-88.5627288,31.1536906,establishment,rooftop,"1017 jackson ave, leakesville, ms 39451, usa",31.1550395802915,31.1523416197085,-88.5613798197085,-88.56407778029151
Short term,TRUE,FALSE,FALSE,PIONEER HEALTH SERVICES OF NEWTON,MS,NEWTON,250149,"9421 EAST SIDE DRIVE EXTENSION, POB 299",39345,"PIONEER HEALTH SERVICES OF NEWTON near NEWTON, MS 39345",-89.1280585,32.3574554,doctor,rooftop,"9427 eastside dr suite a, newton, ms 39345, usa",32.3588043802915,32.3561064197085,-89.1267095197085,-89.1294074802915
Short term,TRUE,TRUE,FALSE,SELECT SPECIALTY HOSP JACKSON INC,MS,JACKSON,250153,1850 CHADRICK DRIVE 5TH FLOOR,39204,"SELECT SPECIALTY HOSP JACKSON INC near JACKSON, MS 39204",-90.17949759999999,32.3150536,establishment,rooftop,"1225 n state st 5th floor, jackson, ms 39202, usa",32.3164025802915,32.3137046197085,-90.1781486197085,-90.1808465802915
Critical Access,TRUE,FALSE,FALSE,NOXUBEE GENERAL CRITICAL ACCESS HOSP,MS,MACON,251307,78 HOSPITAL ROAD,39341,"NOXUBEE GENERAL CRITICAL ACCESS HOSP near MACON, MS 39341",-88.55895699999999,33.122084,establishment,rooftop,"78 hospital dr, macon, ms 39341, usa",33.1234329802915,33.1207350197085,-88.5576080197085,-88.5603059802915
Critical Access,TRUE,TRUE,FALSE,FIELD HEALTH SYSTEM,MS,CENTREVILLE,251309,178 HIGHWAY 24,39631,"FIELD HEALTH SYSTEM near CENTREVILLE, MS 39631",-91.058839,31.08206599999999,establishment,rooftop,"178 ms-24, centreville, ms 39631, usa",31.08341498029149,31.0807170197085,-91.05749001970851,-91.06018798029152
Critical Access,TRUE,FALSE,FALSE,PATIENT'S CHOICE MEDICAL CENTER OF HUMPHREYS,MS,BELZONI,251311,500 CCC ROAD,39038,"PATIENT'S CHOICE MEDICAL CENTER OF HUMPHREYS near BELZONI, MS 39038",-90.47038810000001,33.1840822,establishment,geometric_center,"belzoni, ms 39038, usa",33.1854311802915,33.1827332197085,-90.46903911970851,-90.47173708029152
Critical Access,TRUE,FALSE,FALSE,ALLIANCE LAIRD HOSPITAL CAH,MS,UNION,251321,25117 HIGHWAY 51,39365,"ALLIANCE LAIRD HOSPITAL CAH near UNION, MS 39365",-89.1034183,32.5755157,establishment,rooftop,"25117 ms-15, union, ms 39365, usa",32.57686468029149,32.57416671970849,-89.10206931970849,-89.10476728029151
Critical Access,TRUE,FALSE,FALSE,PIONEER HEALTH SERVICES OF NEWTON,MS,NEWTON,251332,"9421 EAST SIDE DRIVE EXTENSION, POB 299",39345,"PIONEER HEALTH SERVICES OF NEWTON near NEWTON, MS 39345",-89.1280585,32.3574554,doctor,rooftop,"9427 eastside dr suite a, newton, ms 39345, usa",32.3588043802915,32.3561064197085,-89.1267095197085,-89.1294074802915
Critical Access,TRUE,TRUE,FALSE,BAPTIST MEDICAL CENTER - ATTALA,MS,KOSCIUSKO,251336,220 HWY 12 WEST,39090,"BAPTIST MEDICAL CENTER - ATTALA near KOSCIUSKO, MS 39090",-89.59837580000001,33.0656755,establishment,rooftop,"220 ms-12, kosciusko, ms 39090, usa",33.06702448029149,33.0643265197085,-89.59702681970852,-89.59972478029152
Short term,TRUE,FALSE,FALSE,AURORA COMMUNITY HOSPITAL,MO,AURORA,260003,500 PORTER ST,65605,"AURORA COMMUNITY HOSPITAL near AURORA, MO 65605",-93.70999049999999,36.9696675,establishment,rooftop,"500 porter ave, aurora, mo 65605, usa",36.9710164802915,36.9683185197085,-93.70864151970848,-93.71133948029149
Short term,TRUE,FALSE,FALSE,COOPER COUNTY MEMORIAL HOSPITAL,MO,BOONVILLE,260004,17651 B HWY,65233,"COOPER COUNTY MEMORIAL HOSPITAL near BOONVILLE, MO 65233",-92.7409072,38.961614,doctor,rooftop,"17601 hwy b, boonville, mo 65233, usa",38.96296298029149,38.96026501970849,-92.7395582197085,-92.7422561802915
Short term,TRUE,FALSE,FALSE,HANNIBAL REGIONAL HOSPITAL,MO,HANNIBAL,260025,6000 HOSPITAL DR,63401,"HANNIBAL REGIONAL HOSPITAL near HANNIBAL, MO 63401",-91.45013,39.710562,establishment,rooftop,"6000 hospital dr, hannibal, mo 63401, usa",39.71191098029149,39.70921301970849,-91.44878101970849,-91.45147898029151
Short term,TRUE,TRUE,TRUE,SSM HEALTH DEPAUL HOSPITAL ST LOUIS,MO,BRIDGETON,260104,12303 DEPAUL DRIVE,63044,"SSM HEALTH DEPAUL HOSPITAL ST LOUIS near BRIDGETON, MO 63044",-90.43401229999999,38.7511172,establishment,rooftop,"12303 de paul dr, bridgeton, mo 63044, usa",38.7524661802915,38.7497682197085,-90.43266331970848,-90.4353612802915
Short term,TRUE,FALSE,FALSE,ALBERT M KELLER MEMORIAL HOSPITAL,MO,FAYETTE,260111,600 W MORRISON,65248,"ALBERT M KELLER MEMORIAL HOSPITAL near FAYETTE, MO 65248",-92.68928419999999,39.143814,establishment,rooftop,"600 w morrison st #7, fayette, mo 65248, usa",39.1451629802915,39.1424650197085,-92.68793521970848,-92.6906331802915
Short term,TRUE,FALSE,FALSE,ELLETT MEMORIAL HOSPITAL,MO,APPLETON CITY,260148,610 NORTH OHIO AVENUE,64724,"ELLETT MEMORIAL HOSPITAL near APPLETON CITY, MO 64724",-94.02123739999999,38.19277659999999,establishment,rooftop,"610 n ohio st, appleton city, mo 64724, usa",38.19412558029149,38.19142761970849,-94.01988841970848,-94.0225863802915
Short term,TRUE,FALSE,FALSE,BARNES-JEWISH WEST COUNTY HOSPITAL,MO,CREVE COEUR,260162,12634 OLIVE BOULEVARD,63141,"BARNES-JEWISH WEST COUNTY HOSPITAL near CREVE COEUR, MO 63141",-90.4681064,38.6756387,establishment,rooftop,"12634 olive blvd, st. louis, mo 63141, usa",38.6769876802915,38.6742897197085,-90.46675741970849,-90.46945538029149
Short term,TRUE,FALSE,TRUE,BELTON REGIONAL MEDICAL CENTER,MO,BELTON,260214,17065 S 71 HIGHWAY,64012,"BELTON REGIONAL MEDICAL CENTER near BELTON, MO 64012",-94.50315669999999,38.8155122,establishment,geometric_center,"17065 s, us-71, belton, mo 64012, usa",38.8168611802915,38.8141632197085,-94.5018077197085,-94.5045056802915
Short term,TRUE,FALSE,FALSE,SOUTHEAST HEALTH CENTER OF REYNOLDS COUNTY,MO,ELLINGTON,260229,100 HWY 21 N,63638,"SOUTHEAST HEALTH CENTER OF REYNOLDS COUNTY near ELLINGTON, MO 63638",-90.966095,37.242418,doctor,rooftop,"350 e walnut st, ellington, mo 63638, usa",37.2437669802915,37.2410690197085,-90.96474601970849,-90.9674439802915
Critical Access,TRUE,FALSE,FALSE,ELLETT MEMORIAL HOSPITAL,MO,APPLETON CITY,261301,610 N OHIO AVE,64724,"ELLETT MEMORIAL HOSPITAL near APPLETON CITY, MO 64724",-94.02123739999999,38.19277659999999,establishment,rooftop,"610 n ohio st, appleton city, mo 64724, usa",38.19412558029149,38.19142761970849,-94.01988841970848,-94.0225863802915
Critical Access,TRUE,FALSE,FALSE,SALEM MEMORIAL DISTRICT HOSPITAL,MO,SALEM,261318,"PO BOX 774,",65560,"SALEM MEMORIAL DISTRICT HOSPITAL near SALEM, MO 65560",-91.5692851,37.6604402,establishment,rooftop,"35629 mo-72, salem, mo 65560, usa",37.6617891802915,37.6590912197085,-91.56793611970849,-91.5706340802915
Critical Access,TRUE,FALSE,FALSE,I-70 COMMUNITY HOSPITAL,MO,SWEET SPRINGS,261334,"105 HOSPITAL DRIVE, BUILDING B",65351,"I-70 COMMUNITY HOSPITAL near SWEET SPRINGS, MO 65351",-93.4149319,38.9636292,doctor,rooftop,"105 e hospital dr, sweet springs, mo 65351, usa",38.9649781802915,38.9622802197085,-93.4135829197085,-93.41628088029151
Critical Access,TRUE,FALSE,FALSE,SOUTHEAST HEALTH CENTER OF REYNOLDS COUNTY,MO,ELLINGTON,261339,100 HWY 21 N,63638,"SOUTHEAST HEALTH CENTER OF REYNOLDS COUNTY near ELLINGTON, MO 63638",-90.966095,37.242418,doctor,rooftop,"350 e walnut st, ellington, mo 63638, usa",37.2437669802915,37.2410690197085,-90.96474601970849,-90.9674439802915
Short term,TRUE,FALSE,FALSE,BROADWATER HEALTH CENTER,MT,TOWNSEND,270006,110 NO OAK ST,59644,"BROADWATER HEALTH CENTER near TOWNSEND, MT 59644",-111.515923,46.3216818,establishment,rooftop,"110 n oak st, townsend, mt 59644, usa",46.3230307802915,46.3203328197085,-111.5145740197085,-111.5172719802915
Short term,TRUE,FALSE,FALSE,ST JOSEPH HOSPITAL,MT,POLSON,270008,BOX 1010 SKYLINE DR,59860,"ST JOSEPH HOSPITAL near POLSON, MT 59860",-114.1624467,47.6822197,establishment,rooftop,"6 13th ave e, polson, mt 59860, usa",47.6835686802915,47.6808707197085,-114.1610977197085,-114.1637956802915
Short term,TRUE,TRUE,FALSE,COLUMBUS HOSPITAL CORP,MT,GREAT FALLS,270013,PO BOX 5013  500 15TH AVE SOUTH,59403,"COLUMBUS HOSPITAL CORP near GREAT FALLS, MT 59403",-111.2789961,47.50772,establishment,rooftop,"1601 2nd ave n # 108, great falls, mt 59401, usa",47.5090689802915,47.5063710197085,-111.2776471197085,-111.2803450802915
Short term,TRUE,FALSE,FALSE,DANIELS MEMORIAL HOSPITAL,MT,SCOBEY,270036,PO BOX 400,59263,"DANIELS MEMORIAL HOSPITAL near SCOBEY, MT 59263",-105.4182117,48.78819,establishment,rooftop,"105 5th ave, scobey, mt 59263, usa",48.7895389802915,48.7868410197085,-105.4168627197085,-105.4195606802915
Short term,TRUE,FALSE,FALSE,MCCONE COUNTY HOSPITAL,MT,CIRCLE,270043,PO BOX 195,59215,"MCCONE COUNTY HOSPITAL near CIRCLE, MT 59215",-105.5808395,47.4188054,establishment,rooftop,"605 sullivan ave, circle, mt 59215, usa",47.42015438029149,47.41745641970849,-105.5794905197085,-105.5821884802915
Short term,TRUE,FALSE,FALSE,GRANITE COUNTY MEM HOSPITAL,MT,PHILIPSBURG,270047,PO BOX 729,59858,"GRANITE COUNTY MEM HOSPITAL near PHILIPSBURG, MT 59858",-113.2947315,46.3298824,airport,geometric_center,"granite county memorial hospital heliport, philipsburg, mt 59858, usa",46.33123138029149,46.3285334197085,-113.2933825197085,-113.2960804802915
Short term,TRUE,FALSE,FALSE,GARFIELD COUNTY HEALTH CENTER INC,MT,JORDAN,270070,BOX 389,59337,"GARFIELD COUNTY HEALTH CENTER INC near JORDAN, MT 59337",-106.911258,47.3187429,establishment,rooftop,"332 leavitt ave, jordan, mt 59337, usa",47.32009188029149,47.31739391970849,-106.9099090197085,-106.9126069802915
Short term,TRUE,FALSE,FALSE,P H S INDIAN HOSPITAL CROW / NORTHERN CHEYENNE,MT,CROW AGENCY,270075,"1010 SOUTH 7650 EAST, POST OFFICE BOX 9",59022,"P H S INDIAN HOSPITAL CROW / NORTHERN CHEYENNE near CROW AGENCY, MT 59022",-107.4488586,45.5821958,establishment,rooftop,"1010 7650 e, crow agency, mt 59022, usa",45.5835447802915,45.5808468197085,-107.4475096197085,-107.4502075802915
Short term,TRUE,FALSE,FALSE,PHS INDIAN HOSPITAL - FT BELKNAP,MT,HARLEM,270076,"BOX 67, RR 1",59526,"PHS INDIAN HOSPITAL - FT BELKNAP near HARLEM, MT 59526",-108.7641978,48.48224500000001,establishment,rooftop,"669 agency main st, harlem, mt 59526, usa",48.48359398029151,48.48089601970851,-108.7628488197085,-108.7655467802915
Short term,TRUE,FALSE,FALSE,CLARK FORK VALLEY HOSPITAL,MT,PLAINS,270083,PO BOX 768,59859,"CLARK FORK VALLEY HOSPITAL near PLAINS, MT 59859",-114.8881731,47.4683751,establishment,rooftop,"10 kruger rd, plains, mt 59859, usa",47.46972408029149,47.4670261197085,-114.8868241197085,-114.8895220802915
Critical Access,TRUE,TRUE,FALSE,P H S INDIAN HOSPITAL CROW / NORTHERN CHEYENNE,MT,CROW AGENCY,271339,"1010 SOUTH 7650 EAST, POST OFFICE BOX 9",59022,"P H S INDIAN HOSPITAL CROW / NORTHERN CHEYENNE near CROW AGENCY, MT 59022",-107.4488586,45.5821958,establishment,rooftop,"1010 7650 e, crow agency, mt 59022, usa",45.5835447802915,45.5808468197085,-107.4475096197085,-107.4502075802915
Short term,TRUE,FALSE,FALSE,WEBSTER COUNTY COMMUNITY HOSPITAL,NE,RED CLOUD,280014,6TH & FRANKLIN ST,68970,"WEBSTER COUNTY COMMUNITY HOSPITAL near RED CLOUD, NE 68970",-98.5281184,40.0914434,establishment,rooftop,"621 n franklin st, red cloud, ne 68970, usa",40.0927923802915,40.0900944197085,-98.52676941970849,-98.529467380291507
Short term,TRUE,FALSE,FALSE,BOONE COUNTY HEALTH CENTER,NE,ALBION,280031,"PO BOX 151, 723 WEST FAIRVIEW STREET",68620,"BOONE COUNTY HEALTH CENTER near ALBION, NE 68620",-98.0057856,41.6831115,establishment,rooftop,"1019 s 8th st, albion, ne 68620, usa",41.6844604802915,41.6817625197085,-98.00443661970849,-98.0071345802915
Short term,TRUE,FALSE,FALSE,CAMBRIDGE MEM HOSPITAL AND HLTH CENTER,NE,CAMBRIDGE,280049,"PO BOX 488, WEST WIGHWAY 6 AND 34",69022,"CAMBRIDGE MEM HOSPITAL AND HLTH CENTER near CAMBRIDGE, NE 69022",-100.180273,40.2804314,establishment,rooftop,"1305 us-6, cambridge, ne 69022, usa",40.28178038029149,40.2790824197085,-100.1789240197085,-100.1816219802915
Short term,TRUE,FALSE,FALSE,PENDER COMMUNITY HOSPITAL,NE,PENDER,280055,PO BOX 100,68047,"PENDER COMMUNITY HOSPITAL near PENDER, NE 68047",-96.71103339999999,42.1055877,establishment,rooftop,"100 hospital dr, pender, ne 68047, usa",42.1069366802915,42.1042387197085,-96.7096844197085,-96.7123823802915
Short term,TRUE,FALSE,FALSE,PIONEER MEMORIAL COMMUNITY HOSPITAL,NE,MULLEN,280116,P.O. BOX 493,69152,"PIONEER MEMORIAL COMMUNITY HOSPITAL near MULLEN, NE 69152",-101.0439522,42.04590049999999,establishment,rooftop,"206 nw 4th st, mullen, ne 69152, usa",42.0472494802915,42.0445515197085,-101.0426032197085,-101.0453011802915
Short term,TRUE,TRUE,TRUE,BELLEVUE MEDICAL CENTER,NE,BELLEVUE,280132,2500 BELLEVUE MEDICAL CENTER DR,68123,"BELLEVUE MEDICAL CENTER near BELLEVUE, NE 68123",-95.94799979999999,41.1372483,establishment,rooftop,"2500 bellevue medical center dr, bellevue, ne 68123, usa",41.13859728029149,41.13589931970849,-95.9466508197085,-95.9493487802915
Critical Access,TRUE,TRUE,FALSE,SAUNDERS MEDICAL CENTER,NE,WAHOO,281307,1760 COUNTY RD J,68066,"SAUNDERS MEDICAL CENTER near WAHOO, NE 68066",-96.635566,41.193242,establishment,rooftop,"1760 county rd j, wahoo, ne 68066, usa",41.19459098029149,41.19189301970849,-96.63421701970849,-96.6369149802915
Critical Access,TRUE,TRUE,FALSE,ANNIE JEFFREY MEMORIAL COUNTY HEALTH CENTER,NE,OSCEOLA,281314,"P O BOX 428, 531 BEEBE ST",68651,"ANNIE JEFFREY MEMORIAL COUNTY HEALTH CENTER near OSCEOLA, NE 68651",-97.5490483,41.1697564,establishment,rooftop,"531 beebe st, osceola, ne 68651, usa",41.17110538029149,41.16840741970849,-97.54769931970849,-97.5503972802915
Critical Access,TRUE,TRUE,FALSE,CHI HEALTH ST MARY'S,NE,NEBRASKA CITY,281342,1301 GRUNDMAN BLVD,68410,"CHI HEALTH ST MARY'S near NEBRASKA CITY, NE 68410",-95.86242399999999,40.6563247,establishment,rooftop,"1301 grundman blvd, nebraska city, ne 68410, usa",40.6576736802915,40.6549757197085,-95.8610750197085,-95.8637729802915
Short term,TRUE,FALSE,FALSE,MT GRANT GENERAL HOSPITAL,NV,HAWTHORNE,290015,FIRST AND A STREETS,89415,"MT GRANT GENERAL HOSPITAL near HAWTHORNE, NV 89415",-118.6279266,38.5169515,establishment,rooftop,"200 s a st, hawthorne, nv 89415, usa",38.51830048029149,38.51560251970849,-118.6265776197085,-118.6292755802915
Short term,TRUE,TRUE,FALSE,OWYHEE COMMUNITY HEALTH FACILITY,NV,OWYHEE,290029,BOX 212,89832,"OWYHEE COMMUNITY HEALTH FACILITY near OWYHEE, NV 89832",-116.097763,41.9502489,establishment,rooftop,"1623 hospital loop, owyhee, nv 89832, usa",41.9515978802915,41.9488999197085,-116.0964140197085,-116.0991119802915
Critical Access,TRUE,FALSE,FALSE,MOUNT GRANT GENERAL HOSPITAL,NV,HAWTHORNE,291300,FIRST AND A STREETS,89415,"MOUNT GRANT GENERAL HOSPITAL near HAWTHORNE, NV 89415",-118.6279266,38.5169515,establishment,rooftop,"200 s a st, hawthorne, nv 89415, usa",38.51830048029149,38.51560251970849,-118.6265776197085,-118.6292755802915
Critical Access,TRUE,FALSE,FALSE,OWYHEE COMMUNITY HEALTH FACILITY,NV,OWYHEE,291305,PO BOX 130,89832,"OWYHEE COMMUNITY HEALTH FACILITY near OWYHEE, NV 89832",-116.097763,41.9502489,establishment,rooftop,"1623 hospital loop, owyhee, nv 89832, usa",41.9515978802915,41.9488999197085,-116.0964140197085,-116.0991119802915
Short term,TRUE,FALSE,FALSE,BOULEVARD HOSP,NY,LONG ISLAND CITY,330172,4604 31ST AVE,11103,"BOULEVARD HOSP near LONG ISLAND CITY, NY 11103",-73.9276275,40.7445029,establishment,rooftop,"37-11 queens blvd, long island city, ny 11101, usa",40.7458518802915,40.7431539197085,-73.9262785197085,-73.92897648029151
Short term,TRUE,FALSE,FALSE,CLIFTON FINE HOSPITAL,NY,STAR LAKE,330179,PO BOX 10 OSWEGATCHIE TRAIL,13690,"CLIFTON FINE HOSPITAL near STAR LAKE, NY 13690",-75.0560311,44.1622795,establishment,rooftop,"1014 oswegatchie trail rd, star lake, ny 13690, usa",44.16362848029151,44.16093051970851,-75.0546821197085,-75.05738008029151
Short term,TRUE,FALSE,FALSE,LYDIA E HALL HOSP,NY,FREEPORT,330323,4802 TENTH AVE,11520,"LYDIA E HALL HOSP near FREEPORT, NY 11520",-73.5888575,40.6440775,postal_code,approximate,"freeport, ny 11520, usa",40.6735478,40.608592,-73.5585579,-73.603841
Short term,TRUE,FALSE,FALSE,GOWANDA PSYCHIATRIC CENTER,NY,HELMUTH,330373,MEDICAL/SURGICAL UNIT,14079,"GOWANDA PSYCHIATRIC CENTER near HELMUTH, NY 14079",-78.935868,42.4631167,locality,approximate,"gowanda, ny 14070, usa",42.4757381,42.44840689999999,-78.9181638,-78.94399500000002
Short term,TRUE,FALSE,FALSE,"CHARLES A CANNON, JR MEMORIAL HOSPITAL",NC,LINVILLE,340005,434 HOSPITAL DR   P O BOX 767,28646,"CHARLES A CANNON, JR MEMORIAL HOSPITAL near LINVILLE, NC 28646",-81.888896,36.060718,establishment,rooftop,"434 hospital dr, linville, nc 28646, usa",36.0620669802915,36.05936901970851,-81.8875470197085,-81.89024498029151
Short term,TRUE,FALSE,FALSE,STOKES-REYNOLDS MEMORIAL HOSPITAL,NC,DANBURY,340019,PO BOX 10  HWY 8 & 89,27016,"STOKES-REYNOLDS MEMORIAL HOSPITAL near DANBURY, NC 27016",-80.2309154,36.4180006,establishment,geometric_center,"1570 north carolina 8 & 89 highway north, danbury, nc 27016, usa",36.4193495802915,36.4166516197085,-80.2295664197085,-80.23226438029151
Short term,TRUE,TRUE,TRUE,DUKE UNIVERSITY HOSPITAL,NC,DURHAM,340030,PO BOX 3814 DUMC  ERWIN RD,27710,"DUKE UNIVERSITY HOSPITAL near DURHAM, NC 27710",-78.938442,36.0075052,establishment,rooftop,"2301 erwin rd, durham, nc 27710, usa",36.00885418029149,36.00615621970849,-78.9370930197085,-78.9397909802915
Short term,TRUE,TRUE,TRUE,NORTH CAROLINA BAPTIST HOSPITAL,NC,WINSTON-SALEM,340047,MEDICAL CENTER BOULEVARD,27157,"NORTH CAROLINA BAPTIST HOSPITAL near WINSTON-SALEM, NC 27157",-80.2685786,36.0895869,establishment,rooftop,"1 medical center blvd, winston-salem, nc 27103, usa",36.0909358802915,36.0882379197085,-80.26722961970849,-80.2699275802915
Short term,TRUE,FALSE,FALSE,DAVIE COUNTY HOSPITAL,NC,MOCKSVILLE,340052,222 HOSP ST,27028,"DAVIE COUNTY HOSPITAL near MOCKSVILLE, NC 27028",-80.570893,35.8990326,establishment,rooftop,"210 hospital st, mocksville, nc 27028, usa",35.9003815802915,35.8976836197085,-80.56954401970849,-80.5722419802915
Short term,TRUE,FALSE,FALSE,SLOOP MEMORIAL HOSPITAL,NC,CROSSNORE,340080,PO BOX 470,28616,"SLOOP MEMORIAL HOSPITAL near CROSSNORE, NC 28616",-81.930832,36.0224959,postal_code,approximate,"crossnore, nc 28616, usa",36.0315198,36.013471,-81.91482460000002,-81.9468394
Short term,TRUE,FALSE,FALSE,PUNGO DISTRICT HOSPITAL,NC,BELHAVEN,340089,210 E FROMT ST,27810,"PUNGO DISTRICT HOSPITAL near BELHAVEN, NC 27810",-76.624411,35.5517663,establishment,rooftop,"892 us-264, belhaven, nc 27810, usa",35.5531152802915,35.5504173197085,-76.62306201970848,-76.62575998029149
Short term,TRUE,FALSE,FALSE,CHATHAM HOSPITAL INC,NC,SILER CITY,340111,THIRD ST & IVEY AVE BOX 649,27344,"CHATHAM HOSPITAL INC near SILER CITY, NC 27344",-79.4209917,35.7232197,establishment,rooftop,"475 progress blvd, siler city, nc 27344, usa",35.7245686802915,35.72187071970851,-79.4196427197085,-79.42234068029151
Short term,TRUE,FALSE,FALSE,MARIA PARHAM MEDICAL CENTER,NC,HENDERSON,340132,PO BOX 59,27536,"MARIA PARHAM MEDICAL CENTER near HENDERSON, NC 27536",-78.44918539999999,36.33103730000001,establishment,rooftop,"566 ruin creek rd, henderson, nc 27536, usa",36.33238628029151,36.32968831970851,-78.4478364197085,-78.4505343802915
Short term,TRUE,FALSE,TRUE,DAVIS REGIONAL MEDICAL CENTER,NC,STATESVILLE,340144,218 OLD MOCKSBVILLE RD PO BOX 1823,28687,"DAVIS REGIONAL MEDICAL CENTER near STATESVILLE, NC 28687",-80.861877,35.788655,establishment,rooftop,"218 old mocksville rd, statesville, nc 28625, usa",35.7900039802915,35.7873060197085,-80.86052801970851,-80.86322598029152
Short term,TRUE,FALSE,FALSE,CAROLINAS MED CTR-UNIVERSITY,NC,CHARLOTTE,340166,8800 NORTH TYRON STREET,28262,"CAROLINAS MED CTR-UNIVERSITY near CHARLOTTE, NC 28262",-80.7472512,35.3066306,doctor,rooftop,"8800 n tryon st, charlotte, nc 28262, usa",35.3079795802915,35.3052816197085,-80.74590221970848,-80.7486001802915
Critical Access,TRUE,FALSE,FALSE,OUR COMMUNITY HOSPITAL,NC,SCOTLAND NECK,341302,921 JUNIOR HIGH ROAD,27874,"OUR COMMUNITY HOSPITAL near SCOTLAND NECK, NC 27874",-77.4291757,36.1282033,airport,rooftop,"our community hospital heliport, 911 jr high school rd, scotland neck, nc 27874, usa",36.1295522802915,36.1268543197085,-77.42782671970849,-77.4305246802915
Critical Access,TRUE,FALSE,FALSE,LIFEBRITE COMMUNITY HOSPITAL OF STOKES,NC,DANBURY,341317,1570 NC 8 & 89 HWY NORTH,27016,"LIFEBRITE COMMUNITY HOSPITAL OF STOKES near DANBURY, NC 27016",-80.2309154,36.4180006,establishment,geometric_center,"1570 north carolina 8 & 89 highway north, danbury, nc 27016, usa",36.4193495802915,36.4166516197085,-80.2295664197085,-80.23226438029151
Critical Access,TRUE,FALSE,FALSE,CHARLES A CANNON JR MEMORIAL HOSPITAL,NC,LINVILLE,341323,434 HOSPITAL DRIVE,28646,"CHARLES A CANNON JR MEMORIAL HOSPITAL near LINVILLE, NC 28646",-81.888896,36.060718,establishment,rooftop,"434 hospital dr, linville, nc 28646, usa",36.0620669802915,36.05936901970851,-81.8875470197085,-81.89024498029151
Short term,TRUE,FALSE,FALSE,CARRINGTON HEALTH CENTER,ND,CARRINGTON,350008,800 N FOURTH ST,58421,"CARRINGTON HEALTH CENTER near CARRINGTON, ND 58421",-99.12383059999999,47.4538912,establishment,rooftop,"800 n 4th st s, carrington, nd 58421, usa",47.4552401802915,47.4525422197085,-99.1224816197085,-99.1251795802915
Short term,TRUE,TRUE,FALSE,OAKES COMMUNITY HOSPITAL,ND,OAKES,350012,314 SOUTH 8TH STREET,58474,"OAKES COMMUNITY HOSPITAL near OAKES, ND 58474",-98.0889737,46.1503636,establishment,rooftop,"1200 n 7th st n, oakes, nd 58474, usa",46.1517125802915,46.1490146197085,-98.0876247197085,-98.09032268029151
Short term,TRUE,FALSE,FALSE,MCKENZIE COUNTY MEM HOSP,ND,WATFORD CITY,350025,508 N MAIN PO BOX 548,58854,"MCKENZIE COUNTY MEM HOSP near WATFORD CITY, ND 58854",-103.2710472,47.8038773,establishment,rooftop,"709 4th ave ne, watford city, nd 58854, usa",47.80522628029149,47.8025283197085,-103.2696982197085,-103.2723961802915
Short term,TRUE,TRUE,FALSE,P H S INDIAN HOSP AT BELCOURT-QUENTIN N BURDICK,ND,BELCOURT,350063,PO BOX 160,58316,"P H S INDIAN HOSP AT BELCOURT-QUENTIN N BURDICK near BELCOURT, ND 58316",-99.7483567,48.8434415,establishment,rooftop,"1300 hospital loop, belcourt, nd 58316, usa",48.84479048029149,48.8420925197085,-99.74700771970849,-99.74970568029151
Critical Access,TRUE,TRUE,FALSE,KENMARE COMMUNITY HOSPITAL,ND,KENMARE,351305,PO BOX 697,58746,"KENMARE COMMUNITY HOSPITAL near KENMARE, ND 58746",-102.0844703,48.6742881,establishment,rooftop,"317 1st ave nw, kenmare, nd 58746, usa",48.6756370802915,48.6729391197085,-102.0831213197085,-102.0858192802915
Critical Access,TRUE,TRUE,FALSE,COOPERSTOWN MEDICAL CENTER,ND,COOPERSTOWN,351306,1200 ROBERTS AVE NE,58425,"COOPERSTOWN MEDICAL CENTER near COOPERSTOWN, ND 58425",-98.1183593,47.4459333,establishment,rooftop,"1200 roberts ave ne, cooperstown, nd 58425, usa",47.4472822802915,47.4445843197085,-98.1170103197085,-98.1197082802915
Critical Access,TRUE,FALSE,FALSE,NORTHWOOD DEACONESS HEALTH CENTER,ND,NORTHWOOD,351312,PO BOX 190,58267,"NORTHWOOD DEACONESS HEALTH CENTER near NORTHWOOD, ND 58267",-97.57540089999999,47.7347414,establishment,rooftop,"4 north park street, northwood, nd 58267, usa",47.7360903802915,47.7333924197085,-97.5740519197085,-97.5767498802915
Critical Access,TRUE,TRUE,FALSE,CARRINGTON HEALTH CENTER,ND,CARRINGTON,351318,PO BOX 461,58421,"CARRINGTON HEALTH CENTER near CARRINGTON, ND 58421",-99.12383059999999,47.4538912,establishment,rooftop,"800 n 4th st s, carrington, nd 58421, usa",47.4552401802915,47.4525422197085,-99.1224816197085,-99.1251795802915
Critical Access,TRUE,TRUE,FALSE,PEMBINA COUNTY MEMORIAL HOSPITAL,ND,CAVALIER,351319,BOX 380,58220,"PEMBINA COUNTY MEMORIAL HOSPITAL near CAVALIER, ND 58220",-97.618389,48.7922799,establishment,rooftop,"301 mountain st e, cavalier, nd 58220, usa",48.79362888029149,48.7909309197085,-97.6170400197085,-97.6197379802915
Short term,TRUE,FALSE,FALSE,ST ELIZABETH BOARDMAN HEALTH CENTER,OH,BOARDMAN,360276,8401 MARKET STREET,44512,"ST ELIZABETH BOARDMAN HEALTH CENTER near BOARDMAN, OH 44512",-80.660142,40.9943058,establishment,rooftop,"8401 market st, youngstown, oh 44512, usa",40.9956547802915,40.9929568197085,-80.6587930197085,-80.6614909802915
Short term,TRUE,FALSE,TRUE,SOIN MEDICAL CENTER,OH,BEAVER CREEK,360360,3535 PENTAGON PARK BLVD,45431,"SOIN MEDICAL CENTER near BEAVER CREEK, OH 45431",-84.0628267,39.7710585,establishment,rooftop,"3535 pentagon blvd, beavercreek, oh 45431, usa",39.77240748029149,39.76970951970849,-84.06147771970849,-84.06417568029151
Short term,TRUE,FALSE,TRUE,CLEVELAND CLINIC AVON HOSPITAL,OH,AVON,360364,33300 CLEVELAND CLINIC BLVD,44011,"CLEVELAND CLINIC AVON HOSPITAL near AVON, OH 44011",-81.98188789999999,41.468939,establishment,rooftop,"33300 cleveland clinic blvd, avon, oh 44011, usa",41.4702879802915,41.4675900197085,-81.98053891970848,-81.9832368802915
Critical Access,TRUE,FALSE,FALSE,HOCKING VALLEY COMMUNITY HOSPITAL,OH,LOGAN,361330,601 STATE ROUTE 664N,43138,"HOCKING VALLEY COMMUNITY HOSPITAL near LOGAN, OH 43138",-82.4294082,39.5479906,establishment,rooftop,"601 oh-664 n, logan, oh 43138, usa",39.54933958029149,39.5466416197085,-82.42805921970849,-82.43075718029151
Critical Access,TRUE,FALSE,FALSE,FAYETTE COUNTY MEMORIAL HOSPITAL,OH,WASHINGTON CH,361331,1430 COLUMBUS AVENUE,43160,"FAYETTE COUNTY MEMORIAL HOSPITAL near WASHINGTON CH, OH 43160",-83.4270001,39.5476599,establishment,rooftop,"1430 columbus ave, washington court house, oh 43160, usa",39.5490088802915,39.5463109197085,-83.4256511197085,-83.42834908029151
Short term,TRUE,TRUE,FALSE,JACKSON COUNTY MEMORIAL HOSPITAL AUTHORITY,OK,ALTUS,370022,1200 EAST PECAN ST,73523,"JACKSON COUNTY MEMORIAL HOSPITAL AUTHORITY near ALTUS, OK 73523",-99.30389989999999,34.634398,doctor,rooftop,"601 todd ln, altus, ok 73521, usa",34.6357469802915,34.6330490197085,-99.3025509197085,-99.3052488802915
Short term,TRUE,FALSE,FALSE,CORDELL MEMORIAL HOSPITAL,OK,CORDELL,370061,1220 N GLENN ENGLISH ST BOX 10,73632,"CORDELL MEMORIAL HOSPITAL near CORDELL, OK 73632",-98.98835,35.3030087,establishment,rooftop,"1220 n glenn l english st, new cordell, ok 73632, usa",35.3043576802915,35.3016597197085,-98.9870010197085,-98.98969898029151
Short term,TRUE,FALSE,FALSE,BEAVER COUNTY MEMORIAL HOSPITAL,OK,BEAVER,370082,"212 EAST 8TH STREET, P O BOX 640",73932,"BEAVER COUNTY MEMORIAL HOSPITAL near BEAVER, OK 73932",-100.5162771,36.8107687,establishment,rooftop,"212 east 8th st, beaver, ok 73932, usa",36.8121176802915,36.8094197197085,-100.5149281197085,-100.5176260802915
Short term,TRUE,FALSE,FALSE,SAYRE COMMUNITY HOSPITAL,OK,SAYRE,370103,911 HOSPITAL DRIVE,73662,"SAYRE COMMUNITY HOSPITAL near SAYRE, OK 73662",-99.64046119999999,35.2905138,establishment,rooftop,"115 s 4th st, sayre, ok 73662, usa",35.2918627802915,35.2891648197085,-99.6391122197085,-99.6418101802915
Short term,TRUE,FALSE,FALSE,INTEGRIS GROVE HOSPITAL,OK,GROVE,370113,1001 EAST 18TH STREET,74344,"INTEGRIS GROVE HOSPITAL near GROVE, OK 74344",-94.75815089999999,36.5820686,establishment,rooftop,"1001 e 18th st, grove, ok 74344, usa",36.5834175802915,36.5807196197085,-94.75680191970848,-94.7594998802915
Short term,TRUE,FALSE,FALSE,ROGER MILLS MEMORIAL HOSPITAL,OK,CHEYENNE,370131,"501 SOUTH L L MALES AVENUE, PO BOX 219",73628,"ROGER MILLS MEMORIAL HOSPITAL near CHEYENNE, OK 73628",-99.6715086,35.6094846,establishment,rooftop,"501 s l.l. males ave, cheyenne, ok 73628, usa",35.6108335802915,35.6081356197085,-99.67015961970849,-99.67285758029149
Short term,TRUE,FALSE,FALSE,SOUTHWEST MEDICAL CENTER - MOORE,OK,MOORE,370161,"1500 SOUTHEAST 4TH STREET, PO BOX 6949",73160,"SOUTHWEST MEDICAL CENTER - MOORE near MOORE, OK 73160",-97.490796,35.3054908,doctor,rooftop,"1401 sw 34th st #200, moore, ok 73160, usa",35.3068397802915,35.30414181970851,-97.4894470197085,-97.49214498029151
Short term,TRUE,FALSE,FALSE,CHOCTAW NATION HEALTH SERVICES AUTHORITY,OK,TALIHINA,370172,1 CHOCTAW WAY,74571,"CHOCTAW NATION HEALTH SERVICES AUTHORITY near TALIHINA, OK 74571",-95.04957770000001,34.7534772,establishment,geometric_center,"talihina, ok 74571, usa",34.7548261802915,34.7521282197085,-95.04822871970852,-95.05092668029152
Short term,TRUE,FALSE,FALSE,CHICKASAW NATION MEDICAL CENTER,OK,ADA,370180,1921 STONECIPHER BLVD,74820,"CHICKASAW NATION MEDICAL CENTER near ADA, OK 74820",-96.6455728,34.7311233,establishment,rooftop,"1921 stonecipher blvd, ada, ok 74820, usa",34.7324722802915,34.7297743197085,-96.6442238197085,-96.6469217802915
Short term,TRUE,FALSE,FALSE,HILLCREST HOSPITAL HENRYETTA,OK,HENRYETTA,370183,2401 W MAIN DEWEY,74437,"HILLCREST HOSPITAL HENRYETTA near HENRYETTA, OK 74437",-96.01572159999999,35.4385127,establishment,rooftop,"2401 w main st, henryetta, ok 74437, usa",35.43986168029149,35.43716371970849,-96.0143726197085,-96.0170705802915
Short term,TRUE,FALSE,FALSE,CORDELL MEMORIAL HOSPITAL,OK,CORDELL,370186,1220 NORTH GLENN ENGLISH STREET,73632,"CORDELL MEMORIAL HOSPITAL near CORDELL, OK 73632",-98.98835,35.3030087,establishment,rooftop,"1220 n glenn l english st, new cordell, ok 73632, usa",35.3043576802915,35.3016597197085,-98.9870010197085,-98.98969898029151
Short term,TRUE,FALSE,FALSE,SOUTHWESTERN MEDICAL CENTER,OK,LAWTON,370191,5602 SOUTHWESTERN LEE BLVD PO BOX 7290,73505,"SOUTHWESTERN MEDICAL CENTER near LAWTON, OK 73505",-98.463611,34.5939983,establishment,rooftop,"5608 sw lee blvd, lawton, ok 73505, usa",34.59534728029151,34.59264931970851,-98.46226201970849,-98.46495998029151
Short term,TRUE,FALSE,FALSE,WETUMKA GENERAL HOSPITAL,OK,WETUMKA,370204,"325 WASHITA, SUITE B",74883,"WETUMKA GENERAL HOSPITAL near WETUMKA, OK 74883",-96.2416731,35.2375883,locality,approximate,"wetumka, ok 74883, usa",35.2630381,35.227601,-96.22102,-96.26308499999999
Short term,TRUE,FALSE,FALSE,MOORE MEDICAL CENTER,OK,MOORE,370223,700 SOUTH TELEPHONE ROAD,73160,"MOORE MEDICAL CENTER near MOORE, OK 73160",-97.4932034,35.33252239999999,establishment,rooftop,"700 s telephone rd, moore, ok 73160, usa",35.33387138029149,35.33117341970849,-97.4918544197085,-97.49455238029151
Short term,TRUE,FALSE,TRUE,"ST JOHN BROKEN ARROW, INC",OK,BROKEN ARROW,370235,1000 WEST BOISE CIRCLE,74012,"ST JOHN BROKEN ARROW, INC near BROKEN ARROW, OK 74012",-95.8007147,36.0778586,establishment,rooftop,"1000 w boise cir, broken arrow, ok 74012, usa",36.0792075802915,36.0765096197085,-95.7993657197085,-95.80206368029151
Short term,TRUE,TRUE,FALSE,INTEGRIS HEALTH EDMOND,OK,EDMOND,370236,4801 INTEGRIS PARKWAY,73034,"INTEGRIS HEALTH EDMOND near EDMOND, OK 73034",-97.418329,35.643434,doctor,rooftop,"4833 integris pkwy #200, edmond, ok 73034, usa",35.6447829802915,35.6420850197085,-97.4169800197085,-97.41967798029151
Critical Access,TRUE,FALSE,FALSE,ROGER MILLS MEMORIAL HOSPITAL,OK,CHEYENNE,371303,501 SOUTH L L MALES AVENUE,73628,"ROGER MILLS MEMORIAL HOSPITAL near CHEYENNE, OK 73628",-99.6715086,35.6094846,establishment,rooftop,"501 s l.l. males ave, cheyenne, ok 73628, usa",35.6108335802915,35.6081356197085,-99.67015961970849,-99.67285758029149
Critical Access,TRUE,FALSE,FALSE,"MERCY HOSPITAL KINGFISHER, INC",OK,KINGFISHER,371313,1000 KINGFISHER HOSPITAL DRIVE,73750,"MERCY HOSPITAL KINGFISHER, INC near KINGFISHER, OK 73750",-97.944842,35.810177,establishment,rooftop,"1000 hospital drive, kingfisher, ok 73750, usa",35.8115259802915,35.8088280197085,-97.9434930197085,-97.9461909802915
Critical Access,TRUE,FALSE,FALSE,BEAVER COUNTY MEMORIAL HOSPITAL,OK,BEAVER,371322,212 EAST 8TH STREET,73932,"BEAVER COUNTY MEMORIAL HOSPITAL near BEAVER, OK 73932",-100.5162771,36.8107687,establishment,rooftop,"212 east 8th st, beaver, ok 73932, usa",36.8121176802915,36.8094197197085,-100.5149281197085,-100.5176260802915
Critical Access,TRUE,FALSE,FALSE,CORDELL MEMORIAL HOSPITAL,OK,CORDELL,371325,1220 NORTH GLENN ENGLISH STREET,73632,"CORDELL MEMORIAL HOSPITAL near CORDELL, OK 73632",-98.98835,35.3030087,establishment,rooftop,"1220 n glenn l english st, new cordell, ok 73632, usa",35.3043576802915,35.3016597197085,-98.9870010197085,-98.98969898029151
Critical Access,TRUE,FALSE,FALSE,ST ANTHONY HOSPITAL,OR,PENDLETON,381319,2801 ST ANTHONY WAY,97801,"ST ANTHONY HOSPITAL near PENDLETON, OR 97801",-118.8121656,45.648805,establishment,rooftop,"2801 st anthony way, pendleton, or 97801, usa",45.6501539802915,45.6474560197085,-118.8108166197085,-118.8135145802915
Short term,TRUE,TRUE,TRUE,GEISINGER WYOMING VALLEY MEDICAL CENTER,PA,WILKES BARRE,390270,1000 EAST MOUNTAIN BOULEVARD,18711,"GEISINGER WYOMING VALLEY MEDICAL CENTER near WILKES BARRE, PA 18711",-75.8072581,41.2575701,establishment,rooftop,"1000 e mountain dr, wilkes-barre, pa 18711, usa",41.2589190802915,41.2562211197085,-75.80590911970849,-75.80860708029151
Short term,TRUE,FALSE,FALSE,GRADUATE HOSPITAL,PA,PHILA,390285,ONE GRADUATE PLAZA,19146,"GRADUATE HOSPITAL near PHILA, PA 19146",-75.17768199999999,39.9415227,neighborhood,approximate,"southwest center city, philadelphia, pa 19146, usa",39.9464024,39.9378548,-75.1655088,-75.1924895
Short term,TRUE,FALSE,TRUE,ST LUKE'S HOSPITAL - ANDERSON CAMPUS,PA,EASTON,390326,1872 RIVERSIDE CIRCLE,18045,"ST LUKE'S HOSPITAL - ANDERSON CAMPUS near EASTON, PA 18045",-75.2881049,40.64906,establishment,rooftop,"1872 st luke's blvd, easton, pa 18045, usa",40.6504089802915,40.6477110197085,-75.28675591970848,-75.28945388029149
Critical Access,TRUE,FALSE,FALSE,ENDLESS MOUNTAINS HEALTH SYSTEMS,PA,MONTROSE,391306,100 HOSPITAL DRIVE,18801,"ENDLESS MOUNTAINS HEALTH SYSTEMS near MONTROSE, PA 18801",-75.83712129999999,41.8375721,establishment,rooftop,"100 hospital dr, montrose, pa 18801, usa",41.83892108029149,41.8362231197085,-75.8357723197085,-75.8384702802915
Short term,TRUE,FALSE,FALSE,HOSPITAL METROPOLITANO DR PILA,PR,PONCE,400003,2435 LAS AMERICAS AVE,733,"HOSPITAL METROPOLITANO DR PILA near PONCE, PR 733",-66.61054899999999,18.0037562,establishment,geometric_center,"2435 blvd. luis a. ferr, ponce, 00717, puerto rico",18.0051051802915,18.00240721970849,-66.60920001970848,-66.61189798029149
Short term,TRUE,FALSE,FALSE,"ASOCIACION HOSPITAL DEL MAESTRO, INC",PR,SAN JUAN,400004,SERGIO CUEVAS BUSTAMANTE STREET 550,936,"ASOCIACION HOSPITAL DEL MAESTRO, INC near SAN JUAN, PR 936",-66.0685986,18.4119269,establishment,geometric_center,"calle sergio cuevas bustamante hato rey, san juan, 00927, puerto rico",18.4132758802915,18.41057791970849,-66.06724961970849,-66.06994758029151
Short term,TRUE,FALSE,FALSE,RYDER MEMORIAL HOSPITAL INC,PR,HUMACAO,400007,355 AVE FONT MARTELO,791,"RYDER MEMORIAL HOSPITAL INC near HUMACAO, PR 791",-65.8353731,18.1559738,establishment,geometric_center,"sector cuesta los jobos, humacao, 00791, puerto rico",18.1573227802915,18.15462481970849,-65.83402411970849,-65.83672208029151
Short term,TRUE,FALSE,FALSE,HOSPITAL ORIENTE,PR,HUMACAO,400011,300 FONT MARTELLO STREET,792,"HOSPITAL ORIENTE near HUMACAO, PR 792",-65.83406819999999,18.1529052,establishment,rooftop,"300 calle font martello, humacao, 00791, puerto rico",18.1542541802915,18.1515562197085,-65.83271921970848,-65.8354171802915
Short term,TRUE,FALSE,FALSE,AUXILIO MUTUO HOSPITAL,PR,HATO REY,400016,PONCE DE LEON AVENUE STOP 37 1/2,918,"AUXILIO MUTUO HOSPITAL near HATO REY, PR 918",-66.0513208,18.4096345,establishment,geometric_center,"av. juan ponce de len, hato rey central, san juan 00919, puerto rico",18.4109834802915,18.4082855197085,-66.04997181970849,-66.05266978029151
Short term,TRUE,FALSE,FALSE,SAN CARLOS GENERAL HOSPITAL,PR,SANTURCE,400017,1822 PONCE DE LEON AVE,909,"SAN CARLOS GENERAL HOSPITAL near SANTURCE, PR 909",-66.0614097,18.4402991,establishment,rooftop,"1822 avenida de la constitucin, san juan, 00909, puerto rico",18.4416480802915,18.4389501197085,-66.06006071970849,-66.06275868029151
Short term,TRUE,FALSE,FALSE,HATO REY COMMUNITY HOSPITAL,PR,HATO REY,400027,435 PONCE DE LEON AVE,917,"HATO REY COMMUNITY HOSPITAL near HATO REY, PR 917",-66.055478,18.419501,establishment,rooftop,"#435 avenida de la constitucin, san juan, 00917, puerto rico",18.4208499802915,18.4181520197085,-66.05412901970848,-66.0568269802915
Short term,TRUE,FALSE,FALSE,HUMACAO AREA HOSPITAL,PR,HUMACAO,400031,BOX 115,791,"HUMACAO AREA HOSPITAL near HUMACAO, PR 791",-65.82158930000001,18.1500955,establishment,geometric_center,"sector cuesta los jobos, humacao, 00791, puerto rico",18.1514444802915,18.1487465197085,-65.82024031970852,-65.82293828029152
Short term,TRUE,FALSE,FALSE,SAN JORGE HOSPITAL,PR,SANTURCE,400089,258 SAN JORGE AVENUE,912,"SAN JORGE HOSPITAL near SANTURCE, PR 912",-66.0630394,18.4468796,establishment,rooftop,"258 calle san jorge, san juan, 00912, puerto rico",18.4482285802915,18.4455306197085,-66.0616904197085,-66.0643883802915
Short term,TRUE,FALSE,FALSE,HOSPITAL SAN FRANCISCO,PR,SAN JUAN,400098,371 DE DIEGO AVE,923,"HOSPITAL SAN FRANCISCO near SAN JUAN, PR 923",-66.0387156,18.3990299,establishment,rooftop,"#371 calle de diego, san juan, 00923, puerto rico",18.4003788802915,18.3976809197085,-66.03736661970851,-66.04006458029151
Short term,TRUE,FALSE,FALSE,DOCTORS CENTER HOSPITAL BAYAMON,PR,BAYAMON,400102,9 J STREET EXT HERMANAS DAVILA,959,"DOCTORS CENTER HOSPITAL BAYAMON near BAYAMON, PR 959",-66.1663829,18.3979503,establishment,geometric_center,"calle 2, bayamn, 00960, puerto rico",18.3992992802915,18.39660131970849,-66.1650339197085,-66.16773188029151
Short term,TRUE,FALSE,FALSE,HOSPITAL DR SUSONI INC,PR,ARECIBO,400117,55 PALM ST,614,"HOSPITAL DR SUSONI INC near ARECIBO, PR 614",-66.716838,18.4732666,doctor,rooftop,"#55 calle palma, arecibo, 00612, puerto rico",18.4746155802915,18.4719176197085,-66.7154890197085,-66.7181869802915
Short term,TRUE,FALSE,FALSE,HOSPITAL SAN GERARDO,PR,SAN JUAN,400121,CARR 844 KM 0 5  CUPEY BAJO,928,"HOSPITAL SAN GERARDO near SAN JUAN, PR 928",-66.046365,18.372598,establishment,geometric_center,"carr. 844, rio piedras, san juan 00928, puerto rico",18.3739469802915,18.3712490197085,-66.04501601970848,-66.04771398029149
Short term,TRUE,FALSE,FALSE,PROFESSIONAL HOSPITAL GUAYNABO INC,PR,ALT DE SANTA,400122,AVE LAS CUMBRES ST 199KM 1 2,969,"PROFESSIONAL HOSPITAL GUAYNABO INC near ALT DE SANTA, PR 969",-66.0978195,18.3623203,establishment,geometric_center,"av. las cumbres, guaynabo, 00969, puerto rico",18.3636692802915,18.3609713197085,-66.09647051970849,-66.09916848029151
Short term,TRUE,FALSE,FALSE,HOSPITAL PEREA,PR,MAYAGUEZ,400123,15 DR BASORA STREET,681,"HOSPITAL PEREA near MAYAGUEZ, PR 681",-67.1397475,18.2028074,establishment,rooftop,"15 calle doctor basora, mayagez, 00681, puerto rico",18.2041563802915,18.20145841970849,-67.1383985197085,-67.14109648029151
Short term,TRUE,FALSE,FALSE,"HOSPITAL PAVIA HATO REY, INC",PR,HATO REY,400128,AVE PONCE DE LEON 435,919,"HOSPITAL PAVIA HATO REY, INC near HATO REY, PR 919",-66.055478,18.419501,establishment,rooftop,"#435 avenida de la constitucin, san juan, 00917, puerto rico",18.4208499802915,18.4181520197085,-66.05412901970848,-66.0568269802915
Short term,TRUE,FALSE,FALSE,HOSPITAL METROPOLITANO DE LA MONTANA,PR,BDA NUEVA,400130,CALLE ISAAC GONZALEZ ESQUINA LEDESMA,641,"HOSPITAL METROPOLITANO DE LA MONTANA near BDA NUEVA, PR 641",-66.7013424,18.2675675,establishment,geometric_center,"calle isaac gonzlez martnez esquina ledesma, utuado, 00641, puerto rico",18.2689164802915,18.2662185197085,-66.6999934197085,-66.70269138029151
Short term,TRUE,FALSE,FALSE,CARIBBEAN MEDICAL CENTER,PR,FAJARDO,400131,151 AVE OSVALDO MOLINA,738,"CARIBBEAN MEDICAL CENTER near FAJARDO, PR 738",-65.65012159999999,18.3321123,establishment,rooftop,"151 ave osvaldo molina vzquez, fajardo, 00738, puerto rico",18.3334612802915,18.3307633197085,-65.6487726197085,-65.6514705802915
Short term,TRUE,FALSE,FALSE,HIMA SAN PABLO CUPEY,PR,SAN JUAN,400133,CARR 844 KM 5 CUPEY BAJO,928,"HIMA SAN PABLO CUPEY near SAN JUAN, PR 928",-66.046365,18.372598,establishment,geometric_center,"carr. 844, rio piedras, san juan 00928, puerto rico",18.3739469802915,18.3712490197085,-66.04501601970848,-66.04771398029149
Short term,TRUE,FALSE,FALSE,JOHN FOGARTY MEMORIAL HOSPITAL,RI,WOONSOCKET,410014,EDDIE DOWLING HIGHWAY,2895,"JOHN FOGARTY MEMORIAL HOSPITAL near WOONSOCKET, RI 2895",-71.4952876,42.0052518,establishment,rooftop,"115 cass ave, woonsocket, ri 02895, usa",42.0066007802915,42.0039028197085,-71.49393861970849,-71.49663658029151
Short term,TRUE,FALSE,FALSE,BAPTIST EASLEY HOSPITAL,SC,EASLEY,420015,PO BOX 2129,29641,"BAPTIST EASLEY HOSPITAL near EASLEY, SC 29641",-82.60689529999999,34.8406774,establishment,rooftop,"200 fleetwood dr, easley, sc 29640, usa",34.8420263802915,34.8393284197085,-82.6055463197085,-82.6082442802915
Short term,TRUE,FALSE,FALSE,CHESTER REGIONAL MEDICAL CENTER,SC,CHESTER,420019,1 MEDICAL PARK DRIVE,29706,"CHESTER REGIONAL MEDICAL CENTER near CHESTER, SC 29706",-81.183059,34.684612,establishment,rooftop,"1 medical park dr, chester, sc 29706, usa",34.6859609802915,34.68326301970851,-81.18171001970849,-81.1844079802915
Short term,TRUE,FALSE,FALSE,ABBEVILLE COUNTY MEMORIAL HOSPITAL,SC,ABBEVILLE,420061,PO BOX 887,29620,"ABBEVILLE COUNTY MEMORIAL HOSPITAL near ABBEVILLE, SC 29620",-82.381591,34.1576213,establishment,rooftop,"420 thomson cir, abbeville, sc 29620, usa",34.15897028029149,34.1562723197085,-82.38024201970849,-82.3829399802915
Short term,TRUE,FALSE,FALSE,LOW COUNTRY GENERAL HOSPITAL,SC,BEAUFORT,420074,PO BOX 1068,29901,"LOW COUNTRY GENERAL HOSPITAL near BEAUFORT, SC 29901",-80.6885667,32.4172025,establishment,rooftop,"954 ribaut rd, beaufort, sc 29902, usa",32.4185514802915,32.4158535197085,-80.68721771970849,-80.6899156802915
Short term,TRUE,FALSE,FALSE,EDGEFIELD COUNTY HOSPITAL,SC,EDGEFIELD,420075,PO BOX 590,29824,"EDGEFIELD COUNTY HOSPITAL near EDGEFIELD, SC 29824",-81.92985259999999,33.7789898,establishment,rooftop,"300 ridge medical plaza rd, edgefield, sc 29824, usa",33.78033878029149,33.77764081970849,-81.9285036197085,-81.9312015802915
Short term,TRUE,TRUE,TRUE,EAST COOPER MEDICAL CENTER,SC,MOUNT PLEASANT,420089,2000 HOSPITAL DR,29464,"EAST COOPER MEDICAL CENTER near MOUNT PLEASANT, SC 29464",-79.8496516,32.8210126,establishment,geometric_center,"east cooper medical center, mt pleasant, sc 29464, usa",32.82236158029149,32.81966361970849,-79.84830261970849,-79.85100058029151
Short term,TRUE,FALSE,FALSE,COASTAL CAROLINA HOSPITAL,SC,HARDEEVILLE,420101,1000 MEDICAL CENTER DRIVE,29927,"COASTAL CAROLINA HOSPITAL near HARDEEVILLE, SC 29927",-81.0539155,32.3152138,establishment,rooftop,"1000 medical center dr, hardeeville, sc 29927, usa",32.3165627802915,32.3138648197085,-81.0525665197085,-81.05526448029151
Short term,TRUE,FALSE,TRUE,PALMETTO HEALTH BAPTIST PARKRIDGE,SC,COLUMBIA,420106,400 PALMETTO HEALTH PARKWAY,29212,"PALMETTO HEALTH BAPTIST PARKRIDGE near COLUMBIA, SC 29212",-81.1596497,34.0872139,establishment,rooftop,"400 palmetto health pkwy, columbia, sc 29212, usa",34.0885628802915,34.08586491970851,-81.15830071970849,-81.1609986802915
Critical Access,TRUE,FALSE,FALSE,FAIRFIELD MEMORIAL HOSPITAL,SC,WINNSBORO,421302,321 BYPASS PO BOX 620,29180,"FAIRFIELD MEMORIAL HOSPITAL near WINNSBORO, SC 29180",-81.103056,34.399754,doctor,rooftop,"102 us-321 byp, winnsboro, sc 29180, usa",34.4011029802915,34.39840501970851,-81.10170701970848,-81.10440498029149
Short term,TRUE,FALSE,FALSE,FAULK CO MEM HOSPITAL,SD,FAULKTON,430025,BOX 100,57438,"FAULK CO MEM HOSPITAL near FAULKTON, SD 57438",-99.1329703,45.0304107,establishment,rooftop,"1300 oak st, faulkton, sd 57438, usa",45.03175968029151,45.02906171970851,-99.13162131970849,-99.1343192802915
Short term,TRUE,FALSE,FALSE,FIVE COUNTIES HOSPITAL,SD,LEMMON,430080,405 SIXTH AVE W PO BOX 479,57638,"FIVE COUNTIES HOSPITAL near LEMMON, SD 57638",-102.1685791,45.9402732,establishment,rooftop,"405 6th ave w, lemmon, sd 57638, usa",45.9416221802915,45.9389242197085,-102.1672301197085,-102.1699280802915
Short term,TRUE,FALSE,FALSE,PHS INDIAN HOSPITAL AT EAGLE BUTTE,SD,EAGLE BUTTE,430083,24276 166TH AIRPORT ROAD,57625,"PHS INDIAN HOSPITAL AT EAGLE BUTTE near EAGLE BUTTE, SD 57625",-101.2435495,44.9923228,establishment,rooftop,"24276 166th st, eagle butte, sd 57625, usa",44.9936717802915,44.9909738197085,-101.2422005197085,-101.2448984802915
Short term,TRUE,FALSE,FALSE,ESTELLINE COMM HOSP,SD,ESTELLINE,430088,BOX 210,57234,"ESTELLINE COMM HOSP near ESTELLINE, SD 57234",-96.90296800000002,44.5792327,establishment,rooftop,"205 fjerestad ave e, estelline, sd 57234, usa",44.5805816802915,44.5778837197085,-96.90161901970852,-96.90431698029153
Critical Access,TRUE,FALSE,FALSE,FIVE COUNTIES HOSPITAL - CRITICAL ACCESS HOSPITAL,SD,LEMMON,431303,405 SIXTH AVENUE WEST,57638,"FIVE COUNTIES HOSPITAL - CRITICAL ACCESS HOSPITAL near LEMMON, SD 57638",-102.1685791,45.9402732,establishment,rooftop,"405 6th ave w, lemmon, sd 57638, usa",45.9416221802915,45.9389242197085,-102.1672301197085,-102.1699280802915
Short term,TRUE,FALSE,FALSE,(CLOSED) SKYRIDGE MEDICAL CENTER,TN,CLEVELAND,440024,"2305 N CHAMBLISS AVE, BOX 3060",37320,"(CLOSED) SKYRIDGE MEDICAL CENTER near CLEVELAND, TN 37320",-84.8693981,35.1773583,establishment,rooftop,"2305 chambliss ave nw, cleveland, tn 37311, usa",35.1787072802915,35.17600931970851,-84.86804911970849,-84.87074708029151
Short term,TRUE,FALSE,FALSE,NORTHCREST MEDICAL CENTER,TN,SPRINGFIELD,440065,100 NORTHCREST DRIVE,37172,"NORTHCREST MEDICAL CENTER near SPRINGFIELD, TN 37172",-86.88738649999999,36.478502,establishment,rooftop,"100 northcrest dr, springfield, tn 37172, usa",36.4798509802915,36.4771530197085,-86.88603751970848,-86.88873548029149
Short term,TRUE,FALSE,FALSE,GEORGE W HUBBARD HOSPITAL MEHARRY MED,TN,NASHVILLE,440069,1005 D TODD BLVD,37208,"GEORGE W HUBBARD HOSPITAL MEHARRY MED near NASHVILLE, TN 37208",-86.8077028,36.1668749,establishment,rooftop,"1005 dr db todd jr blvd, nashville, tn 37208, usa",36.16822388029149,36.16552591970849,-86.80635381970849,-86.80905178029151
Short term,TRUE,FALSE,FALSE,SEQUATCHIE GENERAL HOSPITAL,TN,DUNLAP,440074,132 HOSPITAL LOOP,37327,"SEQUATCHIE GENERAL HOSPITAL near DUNLAP, TN 37327",-85.38618799999999,35.37536800000001,establishment,rooftop,"426 cedar st, dunlap, tn 37327, usa",35.37671698029151,35.37401901970851,-85.3848390197085,-85.3875369802915
Short term,TRUE,TRUE,FALSE,NORTH TEXAS MEDICAL CENTER,TX,GAINESVILLE,450090,1900 HOSPITAL BLVD,76240,"NORTH TEXAS MEDICAL CENTER near GAINESVILLE, TX 76240",-97.16269369999999,33.6462889,establishment,rooftop,"1900 hospital boulevard, gainesville, tx 76240, usa",33.64763788029151,33.64493991970851,-97.1613447197085,-97.1640426802915
Short term,TRUE,FALSE,FALSE,COMFORT COMMUNITY HOSP,TX,COMFORT,450093,700 FALTIN BOX 338,78013,"COMFORT COMMUNITY HOSP near COMFORT, TX 78013",-98.90676359999999,29.971448,establishment,rooftop,"615 faltin st, comfort, tx 78013, usa",29.9727969802915,29.9700990197085,-98.90541461970848,-98.9081125802915
Short term,TRUE,FALSE,FALSE,NORTHWEST REGIONAL HOSPITAL,TX,CORPUS CHRISTI,450131,13725 FARM ROAD 624,78469,"NORTHWEST REGIONAL HOSPITAL near CORPUS CHRISTI, TX 78469",-97.6353781,27.855033,establishment,rooftop,"13725 northwest blvd, corpus christi, tx 78410, usa",27.85638198029151,27.8536840197085,-97.6340291197085,-97.63672708029151
Short term,TRUE,TRUE,FALSE,METHODIST HOSPITAL SOUTH,TX,JOURDANTON,450165,1905 HWY 97 EAST,78026,"METHODIST HOSPITAL SOUTH near JOURDANTON, TX 78026",-98.5260806,28.9330966,establishment,geometric_center,"1905 hwy 97 east, jourdanton, tx 78026, usa",28.9344455802915,28.9317476197085,-98.52473161970849,-98.52742958029151
Short term,TRUE,FALSE,FALSE,MAINLAND CENTER HOSPITAL,TX,TEXAS CITY,450195,6801 LOWRY EXPRESSWAY,77592,"MAINLAND CENTER HOSPITAL near TEXAS CITY, TX 77592",-94.98580810000001,29.3939725,establishment,rooftop,"6801 emmett f lowry expy, texas city, tx 77591, usa",29.3953214802915,29.3926235197085,-94.98445911970852,-94.98715708029152
Short term,TRUE,TRUE,FALSE,ETMC CARTHAGE,TX,CARTHAGE,450210,409 WEST COTTAGE,75633,"ETMC CARTHAGE near CARTHAGE, TX 75633",-94.3466162,32.1661404,establishment,rooftop,"409 cottage rd, carthage, tx 75633, usa",32.1674893802915,32.1647914197085,-94.34526721970849,-94.3479651802915
Short term,TRUE,FALSE,FALSE,HALL COUNTY HOSPITAL,TX,MEMPHIS,450217,1800 N BOYKIN DR,79245,"HALL COUNTY HOSPITAL near MEMPHIS, TX 79245",-100.5379236,34.724918,establishment,rooftop,"618 w main st, memphis, tx 79245, usa",34.7262669802915,34.7235690197085,-100.5365746197085,-100.5392725802915
Short term,TRUE,FALSE,FALSE,DAVID GRANBERRY MEMORIAL HOSPITAL,TX,NAPLES,450275,CRAIG AND WILLIS STS BOX 38,75568,"DAVID GRANBERRY MEMORIAL HOSPITAL near NAPLES, TX 75568",-94.6802055,33.2031774,locality,approximate,"naples, tx 75568, usa",33.2213689,33.1860129,-94.6591469,-94.6956809
Short term,TRUE,TRUE,FALSE,TEXAS HEALTH PRESBYTERIAN HOSPITAL KAUFMAN,TX,KAUFMAN,450292,850 ED HALL,75142,"TEXAS HEALTH PRESBYTERIAN HOSPITAL KAUFMAN near KAUFMAN, TX 75142",-96.3183011,32.5921872,establishment,rooftop,"850 ed hall dr, kaufman, tx 75142, usa",32.5935361802915,32.5908382197085,-96.31695211970849,-96.31965008029151
Short term,TRUE,FALSE,FALSE,NEWARK METHODIST HOSP,TX,EL PASO,450313,1109 E 5TH AVE,79901,"NEWARK METHODIST HOSP near EL PASO, TX 79901",-106.4788714,31.7597373,postal_code,approximate,"el paso, tx 79901, usa",31.775553,31.7477089,-106.461517,-106.5086691
Short term,TRUE,FALSE,FALSE,KARNES CITY HOSPITAL INC,TX,KARNES CITY,450338,700 HIGHWAY 80,78118,"KARNES CITY HOSPITAL INC near KARNES CITY, TX 78118",-97.8790092,28.9022965,establishment,rooftop,"1962 tx-80, karnes city, tx 78118, usa",28.9036454802915,28.9009475197085,-97.8776602197085,-97.88035818029151
Short term,TRUE,FALSE,FALSE,MASON MEMORIAL HOSP,TX,MASON,450459,203 COLLEGE,76856,"MASON MEMORIAL HOSP near MASON, TX 76856",-99.2430313,30.7432186,establishment,rooftop,"626 north ave f, mason, tx 76856, usa",30.7445675802915,30.7418696197085,-99.2416823197085,-99.24438028029151
Short term,TRUE,FALSE,FALSE,HASKELL MEMORIAL HOSPITAL,TX,HASKELL,450464,1 NORTH AVE N   P O BOX 1117,79521,"HASKELL MEMORIAL HOSPITAL near HASKELL, TX 79521",-99.7446581,33.1572901,establishment,rooftop,"1 avenue n, haskell, tx 79521, usa",33.1586390802915,33.1559411197085,-99.7433091197085,-99.7460070802915
Short term,TRUE,FALSE,FALSE,MAINLAND MEDICAL CENTER,TX,TEXAS CITY,450530,6801 EMMETT LOWRY EXPRESSWAY,77591,"MAINLAND MEDICAL CENTER near TEXAS CITY, TX 77591",-94.98580810000001,29.3939725,establishment,rooftop,"6801 emmett f lowry expy, texas city, tx 77591, usa",29.3953214802915,29.3926235197085,-94.98445911970852,-94.98715708029152
Short term,TRUE,FALSE,FALSE,TEAGUE GENERAL HOSPITAL,TX,TEAGUE,450621,NORTH 8TH AVE AND HWY 84 BOX 599,75860,"TEAGUE GENERAL HOSPITAL near TEAGUE, TX 75860",-96.2712322,31.629811,establishment,rooftop,"1200 e loop 255, teague, tx 75860, usa",31.6311599802915,31.6284620197085,-96.26988321970849,-96.27258118029151
Short term,TRUE,FALSE,FALSE,WILLACY METHODIST HOSP,TX,RAYMONDVILLE,450627,693 S EXPRESSWAY RT 1 BOX 65,78580,"WILLACY METHODIST HOSP near RAYMONDVILLE, TX 78580",-97.79527320000001,26.4812402,church,rooftop,"1103 w hidalgo ave, raymondville, tx 78580, usa",26.4825891802915,26.4798912197085,-97.793924219708515,-97.79662218029152
Short term,TRUE,FALSE,FALSE,MCCAMEY HOSPITAL AND CONVALESCENT CTR,TX,MC CAMEY,450728,2500 SOUTH HIGHWAY 305 PO BOX 1200,79752,"MCCAMEY HOSPITAL AND CONVALESCENT CTR near MC CAMEY, TX 79752",-102.2110818,31.1140716,establishment,rooftop,"2500 fm 305, mccamey, tx 79752, usa",31.1154205802915,31.1127226197085,-102.2097328197085,-102.2124307802915
Short term,TRUE,FALSE,FALSE,COMFORT COMMUNITY HOSPITAL,TX,COMFORT,450740,700 FALTIN DRIVE,78013,"COMFORT COMMUNITY HOSPITAL near COMFORT, TX 78013",-98.90676359999999,29.971448,establishment,rooftop,"615 faltin st, comfort, tx 78013, usa",29.9727969802915,29.9700990197085,-98.90541461970848,-98.9081125802915
Short term,TRUE,FALSE,TRUE,BROWNSVILLE SURGICAL HOSPITAL,TX,BROWNSVILLE,450841,4750 NORTH EXPRESSWAY,78526,"BROWNSVILLE SURGICAL HOSPITAL near BROWNSVILLE, TX 78526",-97.514957,25.97763,establishment,rooftop,"100b e alton gloor blvd suite 260, brownsville, tx 78526, usa",25.9789789802915,25.9762810197085,-97.5136080197085,-97.5163059802915
Short term,TRUE,TRUE,TRUE,HARLINGEN MEDICAL CENTER,TX,HARLINGEN,450855,5501 SOUTH EXPRESSWAY 77,78550,"HARLINGEN MEDICAL CENTER near HARLINGEN, TX 78550",-97.6748515,26.1581119,establishment,rooftop,"5501 us-77, harlingen, tx 78550, usa",26.1594608802915,26.1567629197085,-97.67350251970849,-97.67620048029151
Short term,TRUE,FALSE,FALSE,ALLIANCE HOSPITAL,TX,ODESSA,450868,515 NORTH ADAMS,79761,"ALLIANCE HOSPITAL near ODESSA, TX 79761",-102.3641264,31.8519363,establishment,rooftop,"515 adams ave, odessa, tx 79761, usa",31.8532852802915,31.8505873197085,-102.3627774197085,-102.3654753802915
Critical Access,TRUE,TRUE,FALSE,IRAAN GENERAL HOSPITAL,TX,IRAAN,451307,600 HIGHWAY 349 NORTH,79744,"IRAAN GENERAL HOSPITAL near IRAAN, TX 79744",-101.907673,30.9147444,establishment,rooftop,"600 tx-349, iraan, tx 79744, usa",30.9160933802915,30.9133954197085,-101.9063240197085,-101.9090219802915
Critical Access,TRUE,FALSE,FALSE,MCCAMEY HOSPITAL,TX,MCCAMEY,451309,2500 HWY 305 SOUTH,79752,"MCCAMEY HOSPITAL near MCCAMEY, TX 79752",-102.2102683,31.1145414,establishment,rooftop,"2500 fm 305, mccamey, tx 79752, usa",31.1158903802915,31.1131924197085,-102.2089193197085,-102.2116172802915
Critical Access,TRUE,FALSE,FALSE,HASKELL MEMORIAL HOSPITAL,TX,HASKELL,451341,1 NORTH AVENUE N  PO BOX 1117,79521,"HASKELL MEMORIAL HOSPITAL near HASKELL, TX 79521",-99.7446581,33.1572901,establishment,rooftop,"1 avenue n, haskell, tx 79521, usa",33.1586390802915,33.1559411197085,-99.7433091197085,-99.7460070802915
Critical Access,TRUE,TRUE,TRUE,LITTLE RIVER HEALTHCARE,TX,ROCKDALE,451357,1700 BRAZOS,76567,"LITTLE RIVER HEALTHCARE near ROCKDALE, TX 76567",-97.02047069999999,30.6511549,establishment,rooftop,"1700 brazos ave, rockdale, tx 76567, usa",30.6525038802915,30.6498059197085,-97.0191217197085,-97.0218196802915
Critical Access,TRUE,TRUE,FALSE,SABINE COUNTY HOSPITAL,TX,HEMPHILL,451361,"PO BOX 750, 2301 HWY 83 W",75948,"SABINE COUNTY HOSPITAL near HEMPHILL, TX 75948",-93.86283859999999,31.3337768,establishment,rooftop,"2301 fm 83, hemphill, tx 75948, usa",31.3351257802915,31.3324278197085,-93.86148961970848,-93.8641875802915
Long term,TRUE,FALSE,TRUE,MEMORIAL SPECIALTY HOSPITAL,TX,LUFKIN,452031,1201 FRANK ST SUITE D,75901,"MEMORIAL SPECIALTY HOSPITAL near LUFKIN, TX 75901",-94.74212209999999,31.3363231,establishment,rooftop,"1201 w frank ave, lufkin, tx 75904, usa",31.3376720802915,31.3349741197085,-94.74077311970848,-94.7434710802915
Short term,TRUE,FALSE,FALSE,CENTRAL VERMONT MEDICAL CENTER,VT,BARRE,470001,BOX 547,5641,"CENTRAL VERMONT MEDICAL CENTER near BARRE, VT 5641",-72.4999277,44.1840033,doctor,rooftop,"225 s main st, barre, vt 05641, usa",44.1853522802915,44.1826543197085,-72.49857871970849,-72.5012766802915
Critical Access,TRUE,FALSE,FALSE,GRACE COTTAGE HOSPITAL,VT,TOWNSHEND,471300,PO BOX 216,5353,"GRACE COTTAGE HOSPITAL near TOWNSHEND, VT 5353",-72.6683429,43.04909139999999,establishment,rooftop,"185 grafton rd, townshend, vt 05353, usa",43.0504403802915,43.0477424197085,-72.66699391970849,-72.66969188029151
Critical Access,TRUE,FALSE,FALSE,SPRINGFIELD HOSPITAL,VT,SPRINGFIELD,471306,PO BOX 2003,5156,"SPRINGFIELD HOSPITAL near SPRINGFIELD, VT 5156",-72.49486619999999,43.2981414,establishment,rooftop,"25 ridgewood rd, springfield, vt 05156, usa",43.29949038029149,43.2967924197085,-72.4935172197085,-72.4962151802915
Short term,TRUE,FALSE,FALSE,"ROY LESTER SCHNEIDER HOSPITAL,THE",VI,ST THOMAS,480001,9048 SUGAR ESTATE,801,"ROY LESTER SCHNEIDER HOSPITAL,THE near ST THOMAS, VI 801",-64.9146707,18.340328,establishment,rooftop,"usa, 9048 alton adams sr dr, charlotte amalie, st thomas 00802, usvi",18.3416769802915,18.3389790197085,-64.91332171970849,-64.9160196802915
Short term,TRUE,FALSE,FALSE,GOV JUAN F LUIS HOSPITAL & MEDICAL CTR,VI,ST CROIX,480002,"#4007 EST DIAMOND RUBY, CHRISTIANSTED",820,"GOV JUAN F LUIS HOSPITAL & MEDICAL CTR near ST CROIX, VI 820",-64.7514261,17.7336832,establishment,rooftop,"4007 estate diamond ruby, christiansted, st croix 00820, usvi",17.7350321802915,17.73233421970849,-64.75007711970851,-64.75277508029151
Short term,TRUE,FALSE,FALSE,JOHNSTON MEMORIAL HOSPITAL,VA,ABINGDON,490053,16000 JOHNSTON MEMORIAL DRIVE,24211,"JOHNSTON MEMORIAL HOSPITAL near ABINGDON, VA 24211",-81.91187289999999,36.7228461,establishment,rooftop,"16000 johnston memorial dr, abingdon, va 24211, usa",36.72419508029149,36.7214971197085,-81.9105239197085,-81.9132218802915
Short term,TRUE,FALSE,FALSE,WYTHEVILLE HOSPITAL CORPORATION,VA,WYTHEVILLE,490078,2505 E MAIN ST,24382,"WYTHEVILLE HOSPITAL CORPORATION near WYTHEVILLE, VA 24382",-81.0971949,36.9546599,establishment,rooftop,"600 w ridge rd, wytheville, va 24382, usa",36.9560088802915,36.9533109197085,-81.09584591970851,-81.09854388029152
Short term,TRUE,FALSE,FALSE,DICKENSON COUNTY MEDICAL CENTER,VA,CLINTWOOD,490132,PO BOX 1390 HOSPITAL DRIVE,24228,"DICKENSON COUNTY MEDICAL CENTER near CLINTWOOD, VA 24228",-82.4492491,37.1607138,establishment,rooftop,"312 hospital dr, clintwood, va 24228, usa",37.16206278029149,37.15936481970849,-82.44790011970849,-82.45059808029151
Short term,TRUE,FALSE,FALSE,NOVANT HEALTH UVA HEALTH HAYMARKET MEDICAL CENTER,VA,HAYMARKET,490144,15225 HEALTHCOTE BOULEVARD,20169,"NOVANT HEALTH UVA HEALTH HAYMARKET MEDICAL CENTER near HAYMARKET, VA 20169",-77.6422741,38.8208595,establishment,rooftop,"15225 heathcote blvd, haymarket, va 20169, usa",38.82220848029149,38.8195105197085,-77.6409251197085,-77.6436230802915
Short term,TRUE,FALSE,TRUE,STONESPRINGS HOSPITAL CENTER,VA,DULLES,490145,24440 STONE SPRINGS BOULEVARD,20166,"STONESPRINGS HOSPITAL CENTER near DULLES, VA 20166",-77.5434678,38.9402349,establishment,rooftop,"24440 stone springs blvd, dulles, va 20166, usa",38.9415838802915,38.9388859197085,-77.54211881970849,-77.54481678029151
Short term,TRUE,FALSE,FALSE,NORTH VALLEY HOSPITAL,WA,TONASKET,500028,16 WEST SECOND(BOX 488),98855,"NORTH VALLEY HOSPITAL near TONASKET, WA 98855",-119.4390204,48.7066507,establishment,rooftop,"126 n whitcomb ave, tonasket, wa 98855, usa",48.7079996802915,48.7053017197085,-119.4376714197085,-119.4403693802915
Short term,TRUE,FALSE,FALSE,ST LUKES MEMORIAL HOSPITAL,WA,SPOKANE,500035,S 711 COWLEY,99210,"ST LUKES MEMORIAL HOSPITAL near SPOKANE, WA 99210",-117.4076871,47.6498318,establishment,rooftop,"715 s cowley st, spokane, wa 99202, usa",47.6511807802915,47.64848281970851,-117.4063381197085,-117.4090360802915
Short term,TRUE,FALSE,FALSE,GARFIELD COUNTY MEMORIAL,WA,POMEROY,500090,66 NORTH SIXTH ST/PO BOX 880,99347,"GARFIELD COUNTY MEMORIAL near POMEROY, WA 99347",-117.6025966,46.475492,establishment,rooftop,"66 6th st, pomeroy, wa 99347, usa",46.47684098029149,46.4741430197085,-117.6012476197085,-117.6039455802915
Short term,TRUE,FALSE,FALSE,MASON GENERAL HOSPITAL,WA,SHELTON,500118,901 MT VIEW DRIVE BLDG 1,98584,"MASON GENERAL HOSPITAL near SHELTON, WA 98584",-123.1139636,47.2257605,establishment,rooftop,"901 mountain view dr, shelton, wa 98584, usa",47.2271094802915,47.2244115197085,-123.1126146197085,-123.1153125802915
Critical Access,TRUE,TRUE,FALSE,GARFIELD COUNTY MEMORIAL HOSPITAL,WA,POMEROY,501301,66 NORTH SIXTH STREET,99347,"GARFIELD COUNTY MEMORIAL HOSPITAL near POMEROY, WA 99347",-117.6025966,46.475492,establishment,rooftop,"66 6th st, pomeroy, wa 99347, usa",46.47684098029149,46.4741430197085,-117.6012476197085,-117.6039455802915
Short term,TRUE,FALSE,FALSE,WEBSTER COUNTY MEMORIAL HOSPITAL,WV,WEBSTER SPRINGS,510025,324 MILLER MTN DR,26288,"WEBSTER COUNTY MEMORIAL HOSPITAL near WEBSTER SPRINGS, WV 26288",-80.41047499999999,38.48228599999999,establishment,rooftop,"324 miller mountain rd, webster springs, wv 26288, usa",38.4836349802915,38.4809370197085,-80.4091260197085,-80.4118239802915
Critical Access,TRUE,FALSE,FALSE,WEBSTER COUNTY MEMORIAL HOSPITAL,WV,WEBSTER SPRINGS,511301,324 MILLER MOUNTAIN DRIVE,26288,"WEBSTER COUNTY MEMORIAL HOSPITAL near WEBSTER SPRINGS, WV 26288",-80.41047499999999,38.48228599999999,establishment,rooftop,"324 miller mountain rd, webster springs, wv 26288, usa",38.4836349802915,38.4809370197085,-80.4091260197085,-80.4118239802915
Critical Access,TRUE,FALSE,FALSE,WAR MEMORIAL HOSPITAL INC,WV,BERKELEY SPRINGS,511309,1 HEALTHY WAY,25411,"WAR MEMORIAL HOSPITAL INC near BERKELEY SPRINGS, WV 25411",-78.2005226,39.6423165,establishment,rooftop,"1 healthy way, berkeley springs, wv 25411, usa",39.6436654802915,39.6409675197085,-78.19917361970849,-78.20187158029151
Short term,TRUE,FALSE,FALSE,FREDERIC MUNICIPAL HOSPITAL ASSOC,WI,FREDERIC,520104,HWY 35 AND UNITED WAY,54837,"FREDERIC MUNICIPAL HOSPITAL ASSOC near FREDERIC, WI 54837",-92.4656843,45.6591763,establishment,rooftop,"108 oak st e, frederic, wi 54837, usa",45.6605252802915,45.6578273197085,-92.46433531970851,-92.46703328029152
Short term,TRUE,FALSE,TRUE,AURORA MEDICAL CENTER,WI,SUMMIT,520206,36500 AURORA DRIVE,53066,"AURORA MEDICAL CENTER near SUMMIT, WI 53066",-88.46755329999999,43.0656441,establishment,rooftop,"36500 aurora dr, oconomowoc, wi 53066, usa",43.0669930802915,43.0642951197085,-88.46620431970848,-88.4689022802915
Critical Access,TRUE,TRUE,FALSE,SPOONER HEALTH SYSTEM,WI,SPOONER,521332,1280 CHANDLER DR,54801,"SPOONER HEALTH SYSTEM near SPOONER, WI 54801",-91.871326,45.84156670000001,establishment,rooftop,"1280 chandler dr, spooner, wi 54801, usa",45.84291568029151,45.84021771970851,-91.8699770197085,-91.8726749802915
Critical Access,TRUE,FALSE,FALSE,THEDACARE MEDICAL CENTER - SHAWANO INC,WI,SHAWANO,521346,100 COUNTY RD B,54166,"THEDACARE MEDICAL CENTER - SHAWANO INC near SHAWANO, WI 54166",-88.6064583,44.76034079999999,doctor,rooftop,"100 county rd b, shawano, wi 54166, usa",44.76168978029149,44.75899181970849,-88.6051093197085,-88.60780728029151
Short term,TRUE,FALSE,FALSE,SOUTH LINCOLN MEDICAL CENTER,WY,KEMMERER,530017,PO BOX 390,83101,"SOUTH LINCOLN MEDICAL CENTER near KEMMERER, WY 83101",-110.5415652,41.7897997,establishment,rooftop,"711 onyx st, kemmerer, wy 83101, usa",41.79114868029149,41.78845071970849,-110.5402162197085,-110.5429141802915
Long term,TRUE,FALSE,FALSE,WYOMING STATE HOSPITAL,WY,EVANSTON,532002,PO BOX 177,82930,"WYOMING STATE HOSPITAL near EVANSTON, WY 82930",-110.9481806,41.2637952,establishment,rooftop,"831 wy-150, evanston, wy 82930, usa",41.2651441802915,41.2624462197085,-110.9468316197085,-110.9495295802915
Short term,TRUE,FALSE,FALSE,GUAM MEMORIAL HOSPITAL AUTHORITY,GU,TAMUNING,650001,85O GOV CARLOS G CAMACHO ROAD,96913,"GUAM MEMORIAL HOSPITAL AUTHORITY near TAMUNING, GU 96913",144.7745069,13.5048539,establishment,rooftop,"850 gov carlos g camacho rd, tamuning, 96913, guam",13.5062028802915,13.5035049197085,144.7758558802915,144.7731579197085
Short term,TRUE,TRUE,TRUE,GUAM REGIONAL MEDICAL CITY,GU,DEDEDO,650003,133 ROUTE 3,96929,"GUAM REGIONAL MEDICAL CITY near DEDEDO, GU 96929",144.8232653,13.5248362,establishment,rooftop,"133 route 3, dededo, 96929, guam",13.5261851802915,13.5234872197085,144.8246142802915,144.8219163197085
Short term,TRUE,FALSE,FALSE,COMMONWEALTH HEALTH CENTER,MP,GARAPAN,660001,"PO BOX 409CK, NAVY HILL ROAD",96950,"COMMONWEALTH HEALTH CENTER near GARAPAN, MP 96950",145.723675,15.2107107,establishment,geometric_center,"hinemlu rd., garapan, saipan 96950, cnmi",15.2120596802915,15.2093617197085,145.7250239802915,145.7223260197085
Short term,TRUE,FALSE,FALSE,ATRIUM MEDICAL CENTER AT CORINTH,TX,CORINTH,670033,3305 CORINTH PARKWAY,76208,"ATRIUM MEDICAL CENTER AT CORINTH near CORINTH, TX 76208",-97.08695,33.1742725,establishment,rooftop,"2813 s mayhill rd, denton, tx 76208, usa",33.1756214802915,33.1729235197085,-97.0856010197085,-97.08829898029151
Short term,TRUE,TRUE,TRUE,THE HOSPITALS OF PROVIDENCE TRANSMOUNTAIN CAMPUS,TX,EL PASO,670120,2000 TRANSMOUNTAIN RD,79911,"THE HOSPITALS OF PROVIDENCE TRANSMOUNTAIN CAMPUS near EL PASO, TX 79911",-106.5650394,31.9044828,establishment,rooftop,"2000 woodrow bean transmountain dr, el paso, tx 79911, usa",31.9058317802915,31.9031338197085,-106.5636904197085,-106.5663883802915
Short term,TRUE,FALSE,FALSE,ST JOHNS HOSPITAL,MN,BROWERVILLE,240033,PO BOX 81,56438,"hospital near PO BOX 81 in BROWERVILLE, MN 56438",-94.8668934,46.0846412,establishment,rooftop,"517 main st s, browerville, mn 56438, usa",46.0859901802915,46.0832922197085,-94.8655444197085,-94.8682423802915
Short term,TRUE,FALSE,FALSE,TUXEDO MEMORIAL HOSP,NY,TUXEDO,330109,MEYERS RD,10987,"hospital near MEYERS RD in TUXEDO, NY 10987",-74.1956994,41.1984542,route,geometric_center,"tuxedo rd, tuxedo, ny 10987, usa",41.2070315,41.1945448,-74.1841796,-74.2032581
Short term,TRUE,FALSE,FALSE,MAURITZ MEMORIAL HOSPITAL,TX,GANADO,450748,206 SUTHERLAND PO DRAWER C,77962,"hospital near 206 SUTHERLAND PO DRAWER C in GANADO, TX 77962",-96.51358309999999,29.0405363,locality,approximate,"ganado, tx 77962, usa",29.0563151,29.027759,-96.50093799999999,-96.521305
